{
  "generated_at": "2025-09-03T20:14:04.051910",
  "routes": {
    "CTB_1_I": {
      "route_number": "1",
      "company": "CTB",
      "direction": "inbound",
      "origin_tc": "中環 (港澳碼頭)",
      "origin_en": "Central (Macau Ferry)",
      "dest_tc": "跑馬地 (上)",
      "dest_en": "Happy Valley (Upper)"
    },
    "CTB_1_O": {
      "route_number": "1",
      "company": "CTB",
      "direction": "outbound",
      "origin_tc": "中環 (港澳碼頭)",
      "origin_en": "Central (Macau Ferry)",
      "dest_tc": "跑馬地 (上)",
      "dest_en": "Happy Valley (Upper)"
    },
    "CTB_10_I": {
      "route_number": "10",
      "company": "CTB",
      "direction": "inbound",
      "origin_tc": "堅尼地城",
      "origin_en": "Kennedy Town",
      "dest_tc": "北角碼頭",
      "dest_en": "North Point Ferry Pier"
    },
    "CTB_10_O": {
      "route_number": "10",
      "company": "CTB",
      "direction": "outbound",
      "origin_tc": "堅尼地城",
      "origin_en": "Kennedy Town",
      "dest_tc": "北角碼頭",
      "dest_en": "North Point Ferry Pier"
    },
    "CTB_101_I": {
      "route_number": "101",
      "company": "CTB",
      "direction": "inbound",
      "origin_tc": "堅尼地城",
      "origin_en": "Kennedy Town",
      "dest_tc": "觀塘 (裕民坊)",
      "dest_en": "Kwun Tong (Yue Man Square)"
    },
    "CTB_101_O": {
      "route_number": "101",
      "company": "CTB",
      "direction": "outbound",
      "origin_tc": "堅尼地城",
      "origin_en": "Kennedy Town",
      "dest_tc": "觀塘 (裕民坊)",
      "dest_en": "Kwun Tong (Yue Man Square)"
    },
    "CTB_101R_O": {
      "route_number": "101R",
      "company": "CTB",
      "direction": "outbound",
      "origin_tc": "跑馬地馬場",
      "origin_en": "Happy Valley Racecourse",
      "dest_tc": "觀塘 (裕民坊)",
      "dest_en": "Kwun Tong (Yue Man Square)"
    },
    "CTB_101X_I": {
      "route_number": "101X",
      "company": "CTB",
      "direction": "inbound",
      "origin_tc": "堅尼地城",
      "origin_en": "Kennedy Town",
      "dest_tc": "觀塘 (裕民坊)",
      "dest_en": "Kwun Tong (Yue Man Square)"
    },
    "CTB_101X_O": {
      "route_number": "101X",
      "company": "CTB",
      "direction": "outbound",
      "origin_tc": "堅尼地城",
      "origin_en": "Kennedy Town",
      "dest_tc": "觀塘 (裕民坊)",
      "dest_en": "Kwun Tong (Yue Man Square)"
    }
  },
  "stops": {
    "002403": {
      "name_tc": "跑馬地 (上)",
      "name_en": "Happy Valley (Upper)",
      "latitude": 22.264400182091,
      "longitude": 114.18864188053,
      "company": "CTB"
    },
    "002402": {
      "name_tc": "箕璉坊, 藍塘道",
      "name_en": "Green Lane, Blue Pool Road",
      "latitude": 22.265580672091,
      "longitude": 114.18873205053,
      "company": "CTB"
    },
    "002492": {
      "name_tc": "桂芳街, 成和道",
      "name_en": "Kwai Fong Street, Sing Woo Road",
      "latitude": 22.266827182091,
      "longitude": 114.18744416053,
      "company": "CTB"
    },
    "002493": {
      "name_tc": "山村道, 成和道",
      "name_en": "Village Road, Sing Woo Road",
      "latitude": 22.268295142091,
      "longitude": 114.18647527053,
      "company": "CTB"
    },
    "002453": {
      "name_tc": "景光街",
      "name_en": "King Kwong Street",
      "latitude": 22.268939962091,
      "longitude": 114.18483901053,
      "company": "CTB"
    },
    "002552": {
      "name_tc": "養和醫院, 黃泥涌道",
      "name_en": "Hong Kong Sanatorium and Hospital, Wong Nai Chung Road",
      "latitude": 22.270151022091,
      "longitude": 114.18267105053,
      "company": "CTB"
    },
    "002553": {
      "name_tc": "跑馬地馬場, 黃泥涌道",
      "name_en": "Happy Valley Racecourse, Wong Nai Chung Road",
      "latitude": 22.271341142091,
      "longitude": 114.18075706053,
      "company": "CTB"
    },
    "002467": {
      "name_tc": "立德里, 摩理臣山道",
      "name_en": "Lap Tak Lane, Morrison Hill Road",
      "latitude": 22.276064312091,
      "longitude": 114.18020849053,
      "company": "CTB"
    },
    "002566": {
      "name_tc": "利景酒店, 灣仔道",
      "name_en": "The Charterhouse, Wan Chai Road",
      "latitude": 22.277832632091,
      "longitude": 114.17916549053,
      "company": "CTB"
    },
    "002537": {
      "name_tc": "普樂里, 灣仔道",
      "name_en": "Bullock Lane, Wan Chai Road",
      "latitude": 22.276798792091,
      "longitude": 114.17597252053,
      "company": "CTB"
    },
    "002446": {
      "name_tc": "修頓球場, 軒尼詩道",
      "name_en": "Southorn Playground, Hennessy Road",
      "latitude": 22.277433042091,
      "longitude": 114.17187855053,
      "company": "CTB"
    },
    "002449": {
      "name_tc": "晏頓街, 軒尼詩道",
      "name_en": "Anton Street, Hennessy Road",
      "latitude": 22.277666072091,
      "longitude": 114.16883945053,
      "company": "CTB"
    },
    "001140": {
      "name_tc": "金鐘 - 太古廣場, 金鐘道",
      "name_en": "Admiralty - Pacific Place, Queensway",
      "latitude": 22.278070732091,
      "longitude": 114.16486695053,
      "company": "CTB"
    },
    "001142": {
      "name_tc": "中銀大廈, 金鐘道",
      "name_en": "Bank of China Tower, Queensway",
      "latitude": 22.279480102091,
      "longitude": 114.16214434053,
      "company": "CTB"
    },
    "001054": {
      "name_tc": "置地廣場, 德輔道中",
      "name_en": "The Landmark, Des Voeux Road Central",
      "latitude": 22.281316152091,
      "longitude": 114.15825054053,
      "company": "CTB"
    },
    "001056": {
      "name_tc": "中環街市, 德輔道中",
      "name_en": "Central Market, Des Voeux Road Central",
      "latitude": 22.284855172091,
      "longitude": 114.15539392053,
      "company": "CTB"
    },
    "001175": {
      "name_tc": "急庇利街, 德輔道中",
      "name_en": "Cleverly Street, Des Voeux Road Central",
      "latitude": 22.286597682091,
      "longitude": 114.15157623053,
      "company": "CTB"
    },
    "001027": {
      "name_tc": "中環 (港澳碼頭)",
      "name_en": "Central (Macau Ferry)",
      "latitude": 22.288274152091,
      "longitude": 114.15042248053,
      "company": "CTB"
    },
    "001044": {
      "name_tc": "林士街, 德輔道中",
      "name_en": "Rumsey Street, Des Voeux Road Central",
      "latitude": 22.286050072091,
      "longitude": 114.15372775053,
      "company": "CTB"
    },
    "001173": {
      "name_tc": "恒生銀行總行大廈, 德輔道中",
      "name_en": "Hang Seng Bank Headquarters, Des Voeux Road Central",
      "latitude": 22.284360062091,
      "longitude": 114.15596819053,
      "company": "CTB"
    },
    "001049": {
      "name_tc": "德忌利士街, 德輔道中",
      "name_en": "Douglas Street, Des Voeux Road Central",
      "latitude": 22.282866402091,
      "longitude": 114.15717776053,
      "company": "CTB"
    },
    "001050": {
      "name_tc": "歷山大廈, 德輔道中",
      "name_en": "Alexandra House, Des Voeux Road Central",
      "latitude": 22.281459032091,
      "longitude": 114.15830013053,
      "company": "CTB"
    },
    "001052": {
      "name_tc": "遮打花園, 德輔道中",
      "name_en": "Chater Garden, Des Voeux Road Central",
      "latitude": 22.280108962091,
      "longitude": 114.16064635053,
      "company": "CTB"
    },
    "001025": {
      "name_tc": "皇后像廣場, 遮打道",
      "name_en": "Statue Square, Chater Road",
      "latitude": 22.281482342091,
      "longitude": 114.16005494053,
      "company": "CTB"
    },
    "003845": {
      "name_tc": "金鐘 - 金鐘廊, 金鐘道",
      "name_en": "Admiralty - Queensway Plaza, Queensway",
      "latitude": 22.278485362091,
      "longitude": 114.16447808053,
      "company": "CTB"
    },
    "002427": {
      "name_tc": "軍器廠街, 軒尼詩道",
      "name_en": "Arsenal Street, Hennessy Road",
      "latitude": 22.277848662091,
      "longitude": 114.16894462053,
      "company": "CTB"
    },
    "002431": {
      "name_tc": "柯布連道, 軒尼詩道",
      "name_en": "O'Brien Road, Hennessy Road",
      "latitude": 22.277694092091,
      "longitude": 114.17312989053,
      "company": "CTB"
    },
    "002412": {
      "name_tc": "譚臣道, 菲林明道",
      "name_en": "Thomson Road, Fleming Road",
      "latitude": 22.277403262091,
      "longitude": 114.17485950053,
      "company": "CTB"
    },
    "002539": {
      "name_tc": "克街, 灣仔道",
      "name_en": "Heard Street, Wan Chai Road",
      "latitude": 22.277181682091,
      "longitude": 114.17717573053,
      "company": "CTB"
    },
    "002540": {
      "name_tc": "天樂里, 灣仔道",
      "name_en": "Tin Lok Lane, Wan Chai Road",
      "latitude": 22.277898752091,
      "longitude": 114.17916388053,
      "company": "CTB"
    },
    "002548": {
      "name_tc": "樂活道, 黃泥涌道",
      "name_en": "Broadwood Road, Wong Nai Chung Road",
      "latitude": 22.274365592091,
      "longitude": 114.18345343053,
      "company": "CTB"
    },
    "002549": {
      "name_tc": "雅谷大廈, 黃泥涌道",
      "name_en": "Amigo Mansion, Wong Nai Chung Road",
      "latitude": 22.272085332091,
      "longitude": 114.18455363053,
      "company": "CTB"
    },
    "002550": {
      "name_tc": "跑馬地 (下)",
      "name_en": "Happy Valley (Lower)",
      "latitude": 22.270337792091,
      "longitude": 114.18483108053,
      "company": "CTB"
    },
    "002490": {
      "name_tc": "奕蔭街, 成和道",
      "name_en": "Yik Yam Street, Sing Woo Road",
      "latitude": 22.269795072091,
      "longitude": 114.18484684053,
      "company": "CTB"
    },
    "002491": {
      "name_tc": "昇平樓, 成和道",
      "name_en": "Shing Ping Mansion, Sing Woo Road",
      "latitude": 22.267818852091,
      "longitude": 114.18685370053,
      "company": "CTB"
    },
    "002560": {
      "name_tc": "箕璉坊",
      "name_en": "Green Lane",
      "latitude": 22.265346372091,
      "longitude": 114.18855798053,
      "company": "CTB"
    },
    "001249": {
      "name_tc": "北角碼頭",
      "name_en": "North Point Ferry Pier",
      "latitude": 22.293287872091,
      "longitude": 114.20149753053,
      "company": "CTB"
    },
    "001279": {
      "name_tc": "琴行街, 英皇道",
      "name_en": "Kam Hong Street, King's Road",
      "latitude": 22.291204122091,
      "longitude": 114.20095851053,
      "company": "CTB"
    },
    "001280": {
      "name_tc": "新都城大廈, 英皇道",
      "name_en": "Metropole Building, King's Road",
      "latitude": 22.290876932091,
      "longitude": 114.19937984053,
      "company": "CTB"
    },
    "001364": {
      "name_tc": "長康街, 英皇道",
      "name_en": "Cheung Hong Street, King's Road",
      "latitude": 22.290176642091,
      "longitude": 114.19594569053,
      "company": "CTB"
    },
    "001283": {
      "name_tc": "炮台山站, 英皇道",
      "name_en": "Fortress Hill Station, King's Road",
      "latitude": 22.288146742091,
      "longitude": 114.19355472053,
      "company": "CTB"
    },
    "001286": {
      "name_tc": "清風街, 英皇道",
      "name_en": "Tsing Fung Street, King's Road",
      "latitude": 22.284713662091,
      "longitude": 114.19291666053,
      "company": "CTB"
    },
    "001214": {
      "name_tc": "皇仁書院, 高士威道",
      "name_en": "Queen's College, Causeway Road",
      "latitude": 22.281286912091,
      "longitude": 114.19065162053,
      "company": "CTB"
    },
    "001215": {
      "name_tc": "香港中央圖書館, 高士威道",
      "name_en": "Hong Kong Central Library, Causeway Road",
      "latitude": 22.280082042091,
      "longitude": 114.18887826053,
      "company": "CTB"
    },
    "002457": {
      "name_tc": "加路連山道, 禮頓道",
      "name_en": "Caroline Hill Road, Leighton Road",
      "latitude": 22.277432082091,
      "longitude": 114.18577553053,
      "company": "CTB"
    },
    "002547": {
      "name_tc": "體育道, 黃泥涌道",
      "name_en": "Sports Road, Wong Nai Chung Road",
      "latitude": 22.276258492091,
      "longitude": 114.18256067053,
      "company": "CTB"
    },
    "002458": {
      "name_tc": "紀利華木球會, 禮頓道",
      "name_en": "Craigengower Cricket Club, Leighton Road",
      "latitude": 22.276970692091,
      "longitude": 114.18220985053,
      "company": "CTB"
    },
    "002558": {
      "name_tc": "跑馬地馬場, 摩理臣山道",
      "name_en": "Happy Valley Racecourse, Morrison Hill Road",
      "latitude": 22.275441072091,
      "longitude": 114.18030536053,
      "company": "CTB"
    },
    "002486": {
      "name_tc": "錫克廟, 皇后大道東",
      "name_en": "Khalsa Diwan Sikh Temple, Queen's Road East",
      "latitude": 22.274802192091,
      "longitude": 114.17851714053,
      "company": "CTB"
    },
    "002487": {
      "name_tc": "香港華仁書院, 皇后大道東",
      "name_en": "Wah Yan College Hong Kong, Queen's Road East",
      "latitude": 22.274833802091,
      "longitude": 114.17623997053,
      "company": "CTB"
    },
    "002569": {
      "name_tc": "胡忠大廈, 皇后大道東",
      "name_en": "Wu Chung House, Queen's Road East",
      "latitude": 22.274580512091,
      "longitude": 114.17250642053,
      "company": "CTB"
    },
    "002488": {
      "name_tc": "聯發街, 皇后大道東",
      "name_en": "Lun Fat Street, Queen's Road East",
      "latitude": 22.276100292091,
      "longitude": 114.17002156053,
      "company": "CTB"
    },
    "002489": {
      "name_tc": "太古廣場三座, 皇后大道東",
      "name_en": "Three Pacific Place, Queen's Road East",
      "latitude": 22.277274142091,
      "longitude": 114.16820458053,
      "company": "CTB"
    },
    "001121": {
      "name_tc": "中環街市, 域多利皇后街",
      "name_en": "Central Market, Queen Victoria Street",
      "latitude": 22.283815052091,
      "longitude": 114.15559526053,
      "company": "CTB"
    },
    "001125": {
      "name_tc": "威靈頓街, 皇后大道中",
      "name_en": "Wellington Street, Queen's Road Central",
      "latitude": 22.284833042091,
      "longitude": 114.15330172053,
      "company": "CTB"
    },
    "001126": {
      "name_tc": "荷李活華庭, 皇后大道中",
      "name_en": "Hollywood Terrace, Queen's Road Central",
      "latitude": 22.284443202091,
      "longitude": 114.15115814053,
      "company": "CTB"
    },
    "001127": {
      "name_tc": "上環文娛中心, 皇后大道中",
      "name_en": "Sheung Wan Civic Centre, Queen's Road Central",
      "latitude": 22.285970352091,
      "longitude": 114.14910338053,
      "company": "CTB"
    },
    "001134": {
      "name_tc": "帝后華庭, 皇后大道西",
      "name_en": "Queen's Terrace, Queen's Road West",
      "latitude": 22.286525342091,
      "longitude": 114.14736012053,
      "company": "CTB"
    },
    "001135": {
      "name_tc": "修打蘭街, 皇后大道西",
      "name_en": "Sutherland Street, Queen's Road West",
      "latitude": 22.286631802091,
      "longitude": 114.14534782053,
      "company": "CTB"
    },
    "001129": {
      "name_tc": "東邊街, 皇后大道西",
      "name_en": "Eastern Street, Queen's Road West",
      "latitude": 22.286847912091,
      "longitude": 114.14426832053,
      "company": "CTB"
    },
    "001130": {
      "name_tc": "正街, 皇后大道西",
      "name_en": "Centre Street, Queen's Road West",
      "latitude": 22.286844142091,
      "longitude": 114.14276129053,
      "company": "CTB"
    },
    "001131": {
      "name_tc": "西邊街, 皇后大道西",
      "name_en": "Western Street, Queen's Road West",
      "latitude": 22.286915762091,
      "longitude": 114.14144558053,
      "company": "CTB"
    },
    "001132": {
      "name_tc": "朝光街, 皇后大道西",
      "name_en": "Chiu Kwong Street, Queen's Road West",
      "latitude": 22.286757962091,
      "longitude": 114.13975003053,
      "company": "CTB"
    },
    "001133": {
      "name_tc": "石塘咀市政大廈, 皇后大道西",
      "name_en": "Shek Tong Tsui Complex, Queen's Road West",
      "latitude": 22.285969012091,
      "longitude": 114.13561606053,
      "company": "CTB"
    },
    "001128": {
      "name_tc": "日富里, 皇后大道西",
      "name_en": "Yat Fu Lane, Queen's Road West",
      "latitude": 22.286430502091,
      "longitude": 114.13350308053,
      "company": "CTB"
    },
    "001002": {
      "name_tc": "西寶城, 卑路乍街",
      "name_en": "The Westwood, Belcher's Street",
      "latitude": 22.286057592091,
      "longitude": 114.13262448053,
      "company": "CTB"
    },
    "001003": {
      "name_tc": "山市街, 卑路乍街",
      "name_en": "Sands Street, Belcher's Street",
      "latitude": 22.283632272091,
      "longitude": 114.13063421053,
      "company": "CTB"
    },
    "001005": {
      "name_tc": "聯邦新樓, 卑路乍街",
      "name_en": "Luen Bong Apartment, Belcher's Street",
      "latitude": 22.282463392091,
      "longitude": 114.12760792053,
      "company": "CTB"
    },
    "001164": {
      "name_tc": "加惠民道, 域多利道",
      "name_en": "Ka Wai Man Road, Victoria Road",
      "latitude": 22.282072692091,
      "longitude": 114.12493465053,
      "company": "CTB"
    },
    "001152": {
      "name_tc": "堅尼地城",
      "name_en": "Kennedy Town",
      "latitude": 22.282054292091,
      "longitude": 114.12263756053,
      "company": "CTB"
    },
    "001163": {
      "name_tc": "西市街, 域多利道",
      "name_en": "Sai See Street, Victoria Road",
      "latitude": 22.282182852091,
      "longitude": 114.12521679053,
      "company": "CTB"
    },
    "001022": {
      "name_tc": "爹核士街, 吉席街",
      "name_en": "Davis Street, Catchick Street",
      "latitude": 22.283220932091,
      "longitude": 114.12755609053,
      "company": "CTB"
    },
    "001080": {
      "name_tc": "卑路乍灣公園, 堅彌地城海旁",
      "name_en": "Belcher Bay Park, Kennedy Town Praya",
      "latitude": 22.284354042091,
      "longitude": 114.13017716053,
      "company": "CTB"
    },
    "001081": {
      "name_tc": "西祥街, 堅彌地城海旁",
      "name_en": "Sai Cheung Street, Kennedy Town Praya",
      "latitude": 22.284984992091,
      "longitude": 114.13095631053,
      "company": "CTB"
    },
    "001079": {
      "name_tc": "歌連臣街, 堅彌地城海旁",
      "name_en": "Collinson Street, Kennedy Town Praya",
      "latitude": 22.286364162091,
      "longitude": 114.13202184053,
      "company": "CTB"
    },
    "001059": {
      "name_tc": "堅尼地城游泳池休憩處, 德輔道西",
      "name_en": "Kennedy Town Swimming Pool Sitting-out Area, Des Voeux Road West",
      "latitude": 22.287202282091,
      "longitude": 114.13257171053,
      "company": "CTB"
    },
    "001060": {
      "name_tc": "山道, 德輔道西",
      "name_en": "Hill Road, Des Voeux Road West",
      "latitude": 22.287192342091,
      "longitude": 114.13433789053,
      "company": "CTB"
    },
    "001061": {
      "name_tc": "嘉安街, 德輔道西",
      "name_en": "Ka On Street, Des Voeux Road West",
      "latitude": 22.287117792091,
      "longitude": 114.13734316053,
      "company": "CTB"
    },
    "001062": {
      "name_tc": "西區警署, 德輔道西",
      "name_en": "Western Police Station, Des Voeux Road West",
      "latitude": 22.287960232091,
      "longitude": 114.14034970053,
      "company": "CTB"
    },
    "001063": {
      "name_tc": "正街, 德輔道西",
      "name_en": "Centre Street, Des Voeux Road West",
      "latitude": 22.287991912091,
      "longitude": 114.14192498053,
      "company": "CTB"
    },
    "001064": {
      "name_tc": "東邊街, 德輔道西",
      "name_en": "Eastern Street, Des Voeux Road West",
      "latitude": 22.287915452091,
      "longitude": 114.14422510053,
      "company": "CTB"
    },
    "001065": {
      "name_tc": "修打蘭街, 德輔道西",
      "name_en": "Sutherland Street, Des Voeux Road West",
      "latitude": 22.287779782091,
      "longitude": 114.14637128053,
      "company": "CTB"
    },
    "001187": {
      "name_tc": "永安中心, 德輔道中",
      "name_en": "Wing On Centre, Des Voeux Road Central",
      "latitude": 22.286401352091,
      "longitude": 114.15288294053,
      "company": "CTB"
    },
    "001136": {
      "name_tc": "金鐘 - 金鐘花園, 金鐘道",
      "name_en": "Admiralty - Admiralty Garden, Queensway",
      "latitude": 22.278493752091,
      "longitude": 114.16445856053,
      "company": "CTB"
    },
    "002479": {
      "name_tc": "太古廣場三座, 皇后大道東",
      "name_en": "Three Pacific Place, Queen's Road East",
      "latitude": 22.277614332091,
      "longitude": 114.16784733053,
      "company": "CTB"
    },
    "002480": {
      "name_tc": "聯發街, 皇后大道東",
      "name_en": "Lun Fat Street, Queen's Road East",
      "latitude": 22.276092532091,
      "longitude": 114.17017417053,
      "company": "CTB"
    },
    "002481": {
      "name_tc": "廈門街, 皇后大道東",
      "name_en": "Amoy Street, Queen's Road East",
      "latitude": 22.275205172091,
      "longitude": 114.17158011053,
      "company": "CTB"
    },
    "002482": {
      "name_tc": "尚翹峰, 皇后大道東",
      "name_en": "The Zenith, Queen's Road East",
      "latitude": 22.274470092091,
      "longitude": 114.17386255053,
      "company": "CTB"
    },
    "002484": {
      "name_tc": "聖若瑟小學, 皇后大道東",
      "name_en": "St. Joseph's Primary School, Queen's Road East",
      "latitude": 22.275165142091,
      "longitude": 114.17692050053,
      "company": "CTB"
    },
    "002485": {
      "name_tc": "伊利沙伯體育館, 皇后大道東",
      "name_en": "Queen Elizabeth Stadium, Queen's Road East",
      "latitude": 22.274920852091,
      "longitude": 114.17867690053,
      "company": "CTB"
    },
    "002469": {
      "name_tc": "禮頓道, 摩理臣山道",
      "name_en": "Leighton Road, Morrison Hill Road",
      "latitude": 22.276257182091,
      "longitude": 114.18045880053,
      "company": "CTB"
    },
    "002455": {
      "name_tc": "勿地臣街, 禮頓道",
      "name_en": "Matheson Street, Leighton Road",
      "latitude": 22.277006672091,
      "longitude": 114.18180360053,
      "company": "CTB"
    },
    "002456": {
      "name_tc": "雲翠大廈, 禮頓道",
      "name_en": "Bonaventure House, Leighton Road",
      "latitude": 22.277441222091,
      "longitude": 114.18464429053,
      "company": "CTB"
    },
    "002474": {
      "name_tc": "邊寧頓街",
      "name_en": "Pennington Street",
      "latitude": 22.278458822091,
      "longitude": 114.18603081053,
      "company": "CTB"
    },
    "001213": {
      "name_tc": "維多利亞公園, 高士威道",
      "name_en": "Victoria Park, Causeway Road",
      "latitude": 22.281133262091,
      "longitude": 114.19006592053,
      "company": "CTB"
    },
    "001259": {
      "name_tc": "銀幕街, 英皇道",
      "name_en": "Ngan Mok Street, King's Road",
      "latitude": 22.283615512091,
      "longitude": 114.19246041053,
      "company": "CTB"
    },
    "001260": {
      "name_tc": "七海商業中心, 英皇道",
      "name_en": "7 Seas Shopping Centre, King's Road",
      "latitude": 22.287742812091,
      "longitude": 114.19296558053,
      "company": "CTB"
    },
    "001261": {
      "name_tc": "電廠街, 英皇道",
      "name_en": "Tin Chong Street, King's Road",
      "latitude": 22.290056622091,
      "longitude": 114.19505769053,
      "company": "CTB"
    },
    "001262": {
      "name_tc": "糖水道, 英皇道",
      "name_en": "Tong Shui Road, King's Road",
      "latitude": 22.290808072091,
      "longitude": 114.19810570053,
      "company": "CTB"
    },
    "001310": {
      "name_tc": "馬寶道, 書局街",
      "name_en": "Marble Road, Shu Kuk Street",
      "latitude": 22.291615512091,
      "longitude": 114.20012532053,
      "company": "CTB"
    },
    "002977": {
      "name_tc": "觀塘 (裕民坊)",
      "name_en": "Kwun Tong (Yue Man Square)",
      "latitude": 22.314506752091,
      "longitude": 114.22472004053,
      "company": "CTB"
    },
    "001648": {
      "name_tc": "牛頭角站, 牛頭角道",
      "name_en": "Ngau Tau Kok Station, Ngau Tau Kok Road",
      "latitude": 22.315247332091,
      "longitude": 114.21981384053,
      "company": "CTB"
    },
    "001650": {
      "name_tc": "觀塘官立小學, 牛頭角道",
      "name_en": "Kwun Tong Government Primary School, Ngau Tau Kok Road",
      "latitude": 22.316965702091,
      "longitude": 114.21762044053,
      "company": "CTB"
    },
    "002978": {
      "name_tc": "牛頭角下邨, 牛頭角道",
      "name_en": "Lower Ngau Tau Kok Estate, Ngau Tau Kok Road",
      "latitude": 22.320004152091,
      "longitude": 114.21526898053,
      "company": "CTB"
    },
    "002979": {
      "name_tc": "淘大花園, 牛頭角道",
      "name_en": "Amoy Gardens, Ngau Tau Kok Road",
      "latitude": 22.324506682091,
      "longitude": 114.21538780053,
      "company": "CTB"
    },
    "002889": {
      "name_tc": "啟業邨, 觀塘道",
      "name_en": "Kai Yip Estate, Kwun Tong Road",
      "latitude": 22.330495182091,
      "longitude": 114.20984372053,
      "company": "CTB"
    },
    "001502": {
      "name_tc": "麗晶花園, 太子道東",
      "name_en": "Richland Gardens, Prince Edward Road East",
      "latitude": 22.332582922091,
      "longitude": 114.20691744053,
      "company": "CTB"
    },
    "001575": {
      "name_tc": "采頤花園, 太子道東",
      "name_en": "Rhythm Garden, Prince Edward Road East",
      "latitude": 22.334936902091,
      "longitude": 114.20201687053,
      "company": "CTB"
    },
    "001576": {
      "name_tc": "譽港灣, 太子道東",
      "name_en": "The Latitude, Prince Edward Road East",
      "latitude": 22.332077002091,
      "longitude": 114.19680000053,
      "company": "CTB"
    },
    "001577": {
      "name_tc": "富豪東方酒店, 太子道東",
      "name_en": "Regal Oriental Hotel, Prince Edward Road East",
      "latitude": 22.327146622091,
      "longitude": 114.19053280053,
      "company": "CTB"
    },
    "001530": {
      "name_tc": "木廠街, 馬頭涌道",
      "name_en": "Mok Cheong Street, Ma Tau Chung Road",
      "latitude": 22.323261842091,
      "longitude": 114.18821017053,
      "company": "CTB"
    },
    "001538": {
      "name_tc": "土瓜灣街市, 馬頭圍道",
      "name_en": "To Kwa Wan Market, Ma Tau Wai Road",
      "latitude": 22.317651292091,
      "longitude": 114.18770359053,
      "company": "CTB"
    },
    "001643": {
      "name_tc": "浙江街遊樂場, 漆咸道北",
      "name_en": "Chi Kiang Street Playground, Chatham Road North",
      "latitude": 22.313753452091,
      "longitude": 114.18730143053,
      "company": "CTB"
    },
    "001644": {
      "name_tc": "北拱街, 漆咸道北",
      "name_en": "Pak Kung Street, Chatham Road North",
      "latitude": 22.311833242091,
      "longitude": 114.18612626053,
      "company": "CTB"
    },
    "001415": {
      "name_tc": "平治街, 漆咸道北",
      "name_en": "Ping Chi Street, Chatham Road North",
      "latitude": 22.309564142091,
      "longitude": 114.18459248053,
      "company": "CTB"
    },
    "001476": {
      "name_tc": "海底隧道巴士轉乘站",
      "name_en": "Cross Harbour Tunnel Bus-Bus Interchange",
      "latitude": 22.303015922091,
      "longitude": 114.18084154053,
      "company": "CTB"
    },
    "002441": {
      "name_tc": "天樂里, 軒尼詩道",
      "name_en": "Tin Lok Lane, Hennessy Road",
      "latitude": 22.278925922091,
      "longitude": 114.18029774053,
      "company": "CTB"
    },
    "002444": {
      "name_tc": "軒尼詩道官立小學, 軒尼詩道",
      "name_en": "Hennessy Road Government Primary School, Hennessy Road",
      "latitude": 22.277744552091,
      "longitude": 114.17543474053,
      "company": "CTB"
    },
    "002692": {
      "name_tc": "士美菲路, 吉席街",
      "name_en": "Smithfield, Catchick Street",
      "latitude": 22.283365132091,
      "longitude": 114.12838920053,
      "company": "CTB"
    },
    "001192": {
      "name_tc": "均益大廈第二期, 德輔道西",
      "name_en": "Kwan Yick Building Phase II, Des Voeux Road West",
      "latitude": 22.287246062091,
      "longitude": 114.13780956053,
      "company": "CTB"
    },
    "002734": {
      "name_tc": "西區警署, 德輔道西",
      "name_en": "Western Police Station, Des Voeux Road West",
      "latitude": 22.287766442091,
      "longitude": 114.13975075053,
      "company": "CTB"
    },
    "002737": {
      "name_tc": "砵典乍街, 德輔道中",
      "name_en": "Pottinger Street, Des Voeux Road Central",
      "latitude": 22.283948002091,
      "longitude": 114.15630946053,
      "company": "CTB"
    },
    "001051": {
      "name_tc": "皇后像廣場, 德輔道中",
      "name_en": "Statue Square, Des Voeux Road Central",
      "latitude": 22.280748762091,
      "longitude": 114.15964401053,
      "company": "CTB"
    },
    "002413": {
      "name_tc": "大有廣場, 菲林明道",
      "name_en": "Tai Yau Plaza, Fleming Road",
      "latitude": 22.276992282091,
      "longitude": 114.17491050053,
      "company": "CTB"
    },
    "002968": {
      "name_tc": "南洋酒店, 摩理臣山道",
      "name_en": "South Pacific Hotel, Morrison Hill Road",
      "latitude": 22.276754282091,
      "longitude": 114.18038082053,
      "company": "CTB"
    },
    "001475": {
      "name_tc": "海底隧道巴士轉乘站",
      "name_en": "Cross Harbour Tunnel Bus-Bus Interchange",
      "latitude": 22.302817792091,
      "longitude": 114.18008423053,
      "company": "CTB"
    },
    "001412": {
      "name_tc": "山谷道, 漆咸道北",
      "name_en": "Valley Road, Chatham Road North",
      "latitude": 22.309305192091,
      "longitude": 114.18379162053,
      "company": "CTB"
    },
    "001413": {
      "name_tc": "北拱街, 漆咸道北",
      "name_en": "Pak Kung Street, Chatham Road North",
      "latitude": 22.312201072091,
      "longitude": 114.18612482053,
      "company": "CTB"
    },
    "001534": {
      "name_tc": "落山道, 馬頭圍道",
      "name_en": "Lok Shan Road, Ma Tau Wai Road",
      "latitude": 22.316614492091,
      "longitude": 114.18747797053,
      "company": "CTB"
    },
    "001535": {
      "name_tc": "天光道, 馬頭圍道",
      "name_en": "Tin Kwong Road, Ma Tau Wai Road",
      "latitude": 22.319316112091,
      "longitude": 114.18745764053,
      "company": "CTB"
    },
    "001772": {
      "name_tc": "馬頭圍邨洋葵樓, 馬頭涌道",
      "name_en": "Geranium House Ma Tau Wai Estate, Ma Tau Chung Road",
      "latitude": 22.322467342091,
      "longitude": 114.18759772053,
      "company": "CTB"
    },
    "001529": {
      "name_tc": "亞皆老街遊樂場, 馬頭涌道",
      "name_en": "Argyle Street Playground, Ma Tau Chung Road",
      "latitude": 22.326431422091,
      "longitude": 114.18954401053,
      "company": "CTB"
    },
    "001572": {
      "name_tc": "富豪東方酒店, 太子道東",
      "name_en": "Regal Oriental Hotel, Prince Edward Road East",
      "latitude": 22.328494832091,
      "longitude": 114.19184067053,
      "company": "CTB"
    },
    "002976": {
      "name_tc": "景泰街, 太子道東",
      "name_en": "King Tai Street, Prince Edward Road East",
      "latitude": 22.334041842091,
      "longitude": 114.19883754053,
      "company": "CTB"
    },
    "001829": {
      "name_tc": "彩虹邨, 太子道東",
      "name_en": "Choi Hung Estate, Prince Edward Road East",
      "latitude": 22.335344522091,
      "longitude": 114.20407525053,
      "company": "CTB"
    },
    "001503": {
      "name_tc": "坪石邨, 太子道東",
      "name_en": "Ping Shek Estate, Prince Edward Road East",
      "latitude": 22.333081342091,
      "longitude": 114.20723458053,
      "company": "CTB"
    },
    "001504": {
      "name_tc": "啟業邨, 觀塘道",
      "name_en": "Kai Yip Estate, Kwun Tong Road",
      "latitude": 22.330616082091,
      "longitude": 114.21034329053,
      "company": "CTB"
    },
    "001505": {
      "name_tc": "九龍灣站, 觀塘道",
      "name_en": "Kowloon Bay Station, Kwun Tong Road",
      "latitude": 22.325498272091,
      "longitude": 114.21429538053,
      "company": "CTB"
    },
    "001506": {
      "name_tc": "牛頭角下邨, 觀塘道",
      "name_en": "Lower Ngau Tau Kok Estate, Kwun Tong Road",
      "latitude": 22.321454812091,
      "longitude": 114.21463179053,
      "company": "CTB"
    },
    "001797": {
      "name_tc": "觀塘道休憩處, 觀塘道",
      "name_en": "Kwun Tong Road Sitting-out Area, Kwun Tong Road",
      "latitude": 22.318072952091,
      "longitude": 114.21503387053,
      "company": "CTB"
    },
    "001508": {
      "name_tc": "牛頭角站, 觀塘道",
      "name_en": "Ngau Tau Kok Station, Kwun Tong Road",
      "latitude": 22.315130552091,
      "longitude": 114.21954638053,
      "company": "CTB"
    },
    "002470": {
      "name_tc": "跑馬地馬場, 摩理臣山道",
      "name_en": "Happy Valley Racecourse, Morrison Hill Road",
      "latitude": 22.275360852091,
      "longitude": 114.18042067053,
      "company": "CTB"
    },
    "001642": {
      "name_tc": "天主教伍華中學, 彩虹道",
      "name_en": "Ng Wah Catholic Secondary School, Choi Hung Road",
      "latitude": 22.333238172091,
      "longitude": 114.19538309053,
      "company": "CTB"
    },
    "003005": {
      "name_tc": "東頭邨泰東樓, 彩虹道",
      "name_en": "Tai Tung House Tung Tau Estate, Choi Hung Road",
      "latitude": 22.335570972091,
      "longitude": 114.19418205053,
      "company": "CTB"
    },
    "001689": {
      "name_tc": "黃大仙警署, 彩虹道",
      "name_en": "Wong Tai Sin Police Station, Choi Hung Road",
      "latitude": 22.339132542091,
      "longitude": 114.19711901053,
      "company": "CTB"
    },
    "001452": {
      "name_tc": "四美街, 彩虹道",
      "name_en": "Sze Mei Street, Choi Hung Road",
      "latitude": 22.338412692091,
      "longitude": 114.20116223053,
      "company": "CTB"
    },
    "001448": {
      "name_tc": "彩虹邨金碧樓, 彩虹邨通道",
      "name_en": "Kam Pik House Choi Hung Estate, Choi Hung access Road",
      "latitude": 22.335157802091,
      "longitude": 114.20498066053,
      "company": "CTB"
    },
    "001773": {
      "name_tc": "臨華街, 宏照道",
      "name_en": "Lam Wah Street, Wang Chiu Road",
      "latitude": 22.323544232091,
      "longitude": 114.20888965053,
      "company": "CTB"
    },
    "001655": {
      "name_tc": "企業廣場, 常悅道",
      "name_en": "Enterprise Square, Sheung Yuet Road",
      "latitude": 22.321528602091,
      "longitude": 114.20793837053,
      "company": "CTB"
    },
    "003047": {
      "name_tc": "九龍灣消防局, 宏光道",
      "name_en": "Kowloon Bay Fire Station, Wang Kwong Road",
      "latitude": 22.323702242091,
      "longitude": 114.20603067053,
      "company": "CTB"
    },
    "003036": {
      "name_tc": "香港輔助警察隊總部, 啟祥道",
      "name_en": "HK Auxiliary Police Force Headquarters, Kai Cheung Road",
      "latitude": 22.325209412091,
      "longitude": 114.20694292053,
      "company": "CTB"
    },
    "003404": {
      "name_tc": "宏展街, 啟祥道",
      "name_en": "Wang Chin Street, Kai Cheung Road",
      "latitude": 22.324995262091,
      "longitude": 114.20461531053,
      "company": "CTB"
    },
    "002570": {
      "name_tc": "伊利莎伯大廈, 告士打道",
      "name_en": "Elizabeth House, Gloucester Road",
      "latitude": 22.281546792091,
      "longitude": 114.18126242053,
      "company": "CTB"
    },
    "001033": {
      "name_tc": "皇后像廣場, 干諾道中",
      "name_en": "Statue Square, Connaught Road Central",
      "latitude": 22.281992192091,
      "longitude": 114.16003822053,
      "company": "CTB"
    },
    "001191": {
      "name_tc": "高樂花園, 干諾道西",
      "name_en": "Connaught Garden, Connaught Road West",
      "latitude": 22.288542812091,
      "longitude": 114.14171663053,
      "company": "CTB"
    },
    "003365": {
      "name_tc": "香港郵政大樓, 啟福道",
      "name_en": "Hongkong Post Building, Kai Fuk Road",
      "latitude": 22.322371362091,
      "longitude": 114.20418858053,
      "company": "CTB"
    },
    "003366": {
      "name_tc": "宏通街, 啟福道",
      "name_en": "Wang Tung Street, Kai Fuk Road",
      "latitude": 22.319799482091,
      "longitude": 114.20722886053,
      "company": "CTB"
    },
    "001649": {
      "name_tc": "MegaBox, 宏照道",
      "name_en": "MegaBox, Wang Chiu Road",
      "latitude": 22.321241952091,
      "longitude": 114.20897841053,
      "company": "CTB"
    },
    "001607": {
      "name_tc": "臨華街, 宏照道",
      "name_en": "Lam Wah Street, Wang Chiu Road",
      "latitude": 22.322591022091,
      "longitude": 114.20883070053,
      "company": "CTB"
    },
    "001669": {
      "name_tc": "牛頭角上邨, 牛頭角道",
      "name_en": "Upper Ngau Tau Kok Estate, Ngau Tau Kok Road",
      "latitude": 22.320624872091,
      "longitude": 114.21569085053,
      "company": "CTB"
    },
    "001656": {
      "name_tc": "花園大廈喜鵲樓, 牛頭角道",
      "name_en": "Hay Cheuk Lau Garden Estate, Ngau Tau Kok Road",
      "latitude": 22.317085042091,
      "longitude": 114.21761447053,
      "company": "CTB"
    },
    "003368": {
      "name_tc": "玉蓮臺, 牛頭角道",
      "name_en": "Lotus Tower, Ngau Tau Kok Road",
      "latitude": 22.315217632091,
      "longitude": 114.22018719053,
      "company": "CTB"
    }
  },
  "route_stops": {
    "CTB_1_I": [
      {
        "stop_id": "002403",
        "sequence": 1
      },
      {
        "stop_id": "002402",
        "sequence": 2
      },
      {
        "stop_id": "002492",
        "sequence": 3
      },
      {
        "stop_id": "002493",
        "sequence": 4
      },
      {
        "stop_id": "002453",
        "sequence": 5
      },
      {
        "stop_id": "002552",
        "sequence": 6
      },
      {
        "stop_id": "002553",
        "sequence": 7
      },
      {
        "stop_id": "002467",
        "sequence": 8
      },
      {
        "stop_id": "002566",
        "sequence": 9
      },
      {
        "stop_id": "002537",
        "sequence": 10
      },
      {
        "stop_id": "002446",
        "sequence": 11
      },
      {
        "stop_id": "002449",
        "sequence": 12
      },
      {
        "stop_id": "001140",
        "sequence": 13
      },
      {
        "stop_id": "001142",
        "sequence": 14
      },
      {
        "stop_id": "001054",
        "sequence": 15
      },
      {
        "stop_id": "001056",
        "sequence": 16
      },
      {
        "stop_id": "001175",
        "sequence": 17
      },
      {
        "stop_id": "001027",
        "sequence": 18
      }
    ],
    "CTB_1_O": [
      {
        "stop_id": "001027",
        "sequence": 1
      },
      {
        "stop_id": "001044",
        "sequence": 2
      },
      {
        "stop_id": "001173",
        "sequence": 3
      },
      {
        "stop_id": "001049",
        "sequence": 4
      },
      {
        "stop_id": "001050",
        "sequence": 5
      },
      {
        "stop_id": "001052",
        "sequence": 6
      },
      {
        "stop_id": "001025",
        "sequence": 7
      },
      {
        "stop_id": "003845",
        "sequence": 8
      },
      {
        "stop_id": "002427",
        "sequence": 9
      },
      {
        "stop_id": "002431",
        "sequence": 10
      },
      {
        "stop_id": "002412",
        "sequence": 11
      },
      {
        "stop_id": "002539",
        "sequence": 12
      },
      {
        "stop_id": "002540",
        "sequence": 13
      },
      {
        "stop_id": "002548",
        "sequence": 14
      },
      {
        "stop_id": "002549",
        "sequence": 15
      },
      {
        "stop_id": "002550",
        "sequence": 16
      },
      {
        "stop_id": "002490",
        "sequence": 17
      },
      {
        "stop_id": "002491",
        "sequence": 18
      },
      {
        "stop_id": "002560",
        "sequence": 19
      },
      {
        "stop_id": "002403",
        "sequence": 20
      }
    ],
    "CTB_10_I": [
      {
        "stop_id": "001249",
        "sequence": 1
      },
      {
        "stop_id": "001279",
        "sequence": 2
      },
      {
        "stop_id": "001280",
        "sequence": 3
      },
      {
        "stop_id": "001364",
        "sequence": 4
      },
      {
        "stop_id": "001283",
        "sequence": 5
      },
      {
        "stop_id": "001286",
        "sequence": 6
      },
      {
        "stop_id": "001214",
        "sequence": 7
      },
      {
        "stop_id": "001215",
        "sequence": 8
      },
      {
        "stop_id": "002457",
        "sequence": 9
      },
      {
        "stop_id": "002547",
        "sequence": 10
      },
      {
        "stop_id": "002548",
        "sequence": 11
      },
      {
        "stop_id": "002550",
        "sequence": 12
      },
      {
        "stop_id": "002552",
        "sequence": 13
      },
      {
        "stop_id": "002458",
        "sequence": 14
      },
      {
        "stop_id": "002558",
        "sequence": 15
      },
      {
        "stop_id": "002486",
        "sequence": 16
      },
      {
        "stop_id": "002487",
        "sequence": 17
      },
      {
        "stop_id": "002569",
        "sequence": 18
      },
      {
        "stop_id": "002488",
        "sequence": 19
      },
      {
        "stop_id": "002489",
        "sequence": 20
      },
      {
        "stop_id": "001140",
        "sequence": 21
      },
      {
        "stop_id": "001142",
        "sequence": 22
      },
      {
        "stop_id": "001054",
        "sequence": 23
      },
      {
        "stop_id": "001121",
        "sequence": 24
      },
      {
        "stop_id": "001125",
        "sequence": 25
      },
      {
        "stop_id": "001126",
        "sequence": 26
      },
      {
        "stop_id": "001127",
        "sequence": 27
      },
      {
        "stop_id": "001134",
        "sequence": 28
      },
      {
        "stop_id": "001135",
        "sequence": 29
      },
      {
        "stop_id": "001129",
        "sequence": 30
      },
      {
        "stop_id": "001130",
        "sequence": 31
      },
      {
        "stop_id": "001131",
        "sequence": 32
      },
      {
        "stop_id": "001132",
        "sequence": 33
      },
      {
        "stop_id": "001133",
        "sequence": 34
      },
      {
        "stop_id": "001128",
        "sequence": 35
      },
      {
        "stop_id": "001002",
        "sequence": 36
      },
      {
        "stop_id": "001003",
        "sequence": 37
      },
      {
        "stop_id": "001005",
        "sequence": 38
      },
      {
        "stop_id": "001164",
        "sequence": 39
      },
      {
        "stop_id": "001152",
        "sequence": 40
      }
    ],
    "CTB_10_O": [
      {
        "stop_id": "001152",
        "sequence": 1
      },
      {
        "stop_id": "001163",
        "sequence": 2
      },
      {
        "stop_id": "001022",
        "sequence": 3
      },
      {
        "stop_id": "001080",
        "sequence": 4
      },
      {
        "stop_id": "001081",
        "sequence": 5
      },
      {
        "stop_id": "001079",
        "sequence": 6
      },
      {
        "stop_id": "001059",
        "sequence": 7
      },
      {
        "stop_id": "001060",
        "sequence": 8
      },
      {
        "stop_id": "001061",
        "sequence": 9
      },
      {
        "stop_id": "001062",
        "sequence": 10
      },
      {
        "stop_id": "001063",
        "sequence": 11
      },
      {
        "stop_id": "001064",
        "sequence": 12
      },
      {
        "stop_id": "001065",
        "sequence": 13
      },
      {
        "stop_id": "001187",
        "sequence": 14
      },
      {
        "stop_id": "001173",
        "sequence": 15
      },
      {
        "stop_id": "001049",
        "sequence": 16
      },
      {
        "stop_id": "001050",
        "sequence": 17
      },
      {
        "stop_id": "001052",
        "sequence": 18
      },
      {
        "stop_id": "001025",
        "sequence": 19
      },
      {
        "stop_id": "001136",
        "sequence": 20
      },
      {
        "stop_id": "002479",
        "sequence": 21
      },
      {
        "stop_id": "002480",
        "sequence": 22
      },
      {
        "stop_id": "002481",
        "sequence": 23
      },
      {
        "stop_id": "002482",
        "sequence": 24
      },
      {
        "stop_id": "002484",
        "sequence": 25
      },
      {
        "stop_id": "002485",
        "sequence": 26
      },
      {
        "stop_id": "002469",
        "sequence": 27
      },
      {
        "stop_id": "002455",
        "sequence": 28
      },
      {
        "stop_id": "002456",
        "sequence": 29
      },
      {
        "stop_id": "002474",
        "sequence": 30
      },
      {
        "stop_id": "001213",
        "sequence": 31
      },
      {
        "stop_id": "001259",
        "sequence": 32
      },
      {
        "stop_id": "001260",
        "sequence": 33
      },
      {
        "stop_id": "001261",
        "sequence": 34
      },
      {
        "stop_id": "001262",
        "sequence": 35
      },
      {
        "stop_id": "001310",
        "sequence": 36
      },
      {
        "stop_id": "001249",
        "sequence": 37
      }
    ],
    "CTB_101_I": [
      {
        "stop_id": "002977",
        "sequence": 1
      },
      {
        "stop_id": "001648",
        "sequence": 2
      },
      {
        "stop_id": "001650",
        "sequence": 3
      },
      {
        "stop_id": "002978",
        "sequence": 4
      },
      {
        "stop_id": "002979",
        "sequence": 5
      },
      {
        "stop_id": "002889",
        "sequence": 6
      },
      {
        "stop_id": "001502",
        "sequence": 7
      },
      {
        "stop_id": "001575",
        "sequence": 8
      },
      {
        "stop_id": "001576",
        "sequence": 9
      },
      {
        "stop_id": "001577",
        "sequence": 10
      },
      {
        "stop_id": "001530",
        "sequence": 11
      },
      {
        "stop_id": "001538",
        "sequence": 12
      },
      {
        "stop_id": "001643",
        "sequence": 13
      },
      {
        "stop_id": "001644",
        "sequence": 14
      },
      {
        "stop_id": "001415",
        "sequence": 15
      },
      {
        "stop_id": "001476",
        "sequence": 16
      },
      {
        "stop_id": "002441",
        "sequence": 17
      },
      {
        "stop_id": "002444",
        "sequence": 18
      },
      {
        "stop_id": "002566",
        "sequence": 19
      },
      {
        "stop_id": "002537",
        "sequence": 20
      },
      {
        "stop_id": "002446",
        "sequence": 21
      },
      {
        "stop_id": "001140",
        "sequence": 22
      },
      {
        "stop_id": "001142",
        "sequence": 23
      },
      {
        "stop_id": "001054",
        "sequence": 24
      },
      {
        "stop_id": "001121",
        "sequence": 25
      },
      {
        "stop_id": "001125",
        "sequence": 26
      },
      {
        "stop_id": "001126",
        "sequence": 27
      },
      {
        "stop_id": "001127",
        "sequence": 28
      },
      {
        "stop_id": "001134",
        "sequence": 29
      },
      {
        "stop_id": "001130",
        "sequence": 30
      },
      {
        "stop_id": "001132",
        "sequence": 31
      },
      {
        "stop_id": "001133",
        "sequence": 32
      },
      {
        "stop_id": "001128",
        "sequence": 33
      },
      {
        "stop_id": "001003",
        "sequence": 34
      },
      {
        "stop_id": "001005",
        "sequence": 35
      },
      {
        "stop_id": "001164",
        "sequence": 36
      },
      {
        "stop_id": "001152",
        "sequence": 37
      }
    ],
    "CTB_101_O": [
      {
        "stop_id": "001152",
        "sequence": 1
      },
      {
        "stop_id": "001163",
        "sequence": 2
      },
      {
        "stop_id": "002692",
        "sequence": 3
      },
      {
        "stop_id": "001081",
        "sequence": 4
      },
      {
        "stop_id": "001059",
        "sequence": 5
      },
      {
        "stop_id": "001060",
        "sequence": 6
      },
      {
        "stop_id": "001192",
        "sequence": 7
      },
      {
        "stop_id": "002734",
        "sequence": 8
      },
      {
        "stop_id": "001064",
        "sequence": 9
      },
      {
        "stop_id": "001065",
        "sequence": 10
      },
      {
        "stop_id": "001044",
        "sequence": 11
      },
      {
        "stop_id": "002737",
        "sequence": 12
      },
      {
        "stop_id": "001051",
        "sequence": 13
      },
      {
        "stop_id": "002427",
        "sequence": 14
      },
      {
        "stop_id": "002431",
        "sequence": 15
      },
      {
        "stop_id": "002413",
        "sequence": 16
      },
      {
        "stop_id": "002539",
        "sequence": 17
      },
      {
        "stop_id": "002968",
        "sequence": 18
      },
      {
        "stop_id": "001475",
        "sequence": 19
      },
      {
        "stop_id": "001412",
        "sequence": 20
      },
      {
        "stop_id": "001413",
        "sequence": 21
      },
      {
        "stop_id": "001534",
        "sequence": 22
      },
      {
        "stop_id": "001535",
        "sequence": 23
      },
      {
        "stop_id": "001772",
        "sequence": 24
      },
      {
        "stop_id": "001529",
        "sequence": 25
      },
      {
        "stop_id": "001572",
        "sequence": 26
      },
      {
        "stop_id": "002976",
        "sequence": 27
      },
      {
        "stop_id": "001829",
        "sequence": 28
      },
      {
        "stop_id": "001503",
        "sequence": 29
      },
      {
        "stop_id": "001504",
        "sequence": 30
      },
      {
        "stop_id": "001505",
        "sequence": 31
      },
      {
        "stop_id": "001506",
        "sequence": 32
      },
      {
        "stop_id": "001797",
        "sequence": 33
      },
      {
        "stop_id": "001508",
        "sequence": 34
      },
      {
        "stop_id": "002977",
        "sequence": 35
      }
    ],
    "CTB_101R_O": [
      {
        "stop_id": "002470",
        "sequence": 1
      },
      {
        "stop_id": "001475",
        "sequence": 2
      },
      {
        "stop_id": "001412",
        "sequence": 3
      },
      {
        "stop_id": "001413",
        "sequence": 4
      },
      {
        "stop_id": "001534",
        "sequence": 5
      },
      {
        "stop_id": "001535",
        "sequence": 6
      },
      {
        "stop_id": "001772",
        "sequence": 7
      },
      {
        "stop_id": "001529",
        "sequence": 8
      },
      {
        "stop_id": "001572",
        "sequence": 9
      },
      {
        "stop_id": "001642",
        "sequence": 10
      },
      {
        "stop_id": "003005",
        "sequence": 11
      },
      {
        "stop_id": "001689",
        "sequence": 12
      },
      {
        "stop_id": "001452",
        "sequence": 13
      },
      {
        "stop_id": "001448",
        "sequence": 14
      },
      {
        "stop_id": "001503",
        "sequence": 15
      },
      {
        "stop_id": "001504",
        "sequence": 16
      },
      {
        "stop_id": "001505",
        "sequence": 17
      },
      {
        "stop_id": "001506",
        "sequence": 18
      },
      {
        "stop_id": "001797",
        "sequence": 19
      },
      {
        "stop_id": "001508",
        "sequence": 20
      },
      {
        "stop_id": "002977",
        "sequence": 21
      }
    ],
    "CTB_101X_I": [
      {
        "stop_id": "002977",
        "sequence": 1
      },
      {
        "stop_id": "001648",
        "sequence": 2
      },
      {
        "stop_id": "001650",
        "sequence": 3
      },
      {
        "stop_id": "002978",
        "sequence": 4
      },
      {
        "stop_id": "002979",
        "sequence": 5
      },
      {
        "stop_id": "001773",
        "sequence": 6
      },
      {
        "stop_id": "001655",
        "sequence": 7
      },
      {
        "stop_id": "003047",
        "sequence": 8
      },
      {
        "stop_id": "003036",
        "sequence": 9
      },
      {
        "stop_id": "003404",
        "sequence": 10
      },
      {
        "stop_id": "002570",
        "sequence": 11
      },
      {
        "stop_id": "001033",
        "sequence": 12
      },
      {
        "stop_id": "001191",
        "sequence": 13
      },
      {
        "stop_id": "001132",
        "sequence": 14
      },
      {
        "stop_id": "001133",
        "sequence": 15
      },
      {
        "stop_id": "001128",
        "sequence": 16
      },
      {
        "stop_id": "001003",
        "sequence": 17
      },
      {
        "stop_id": "001005",
        "sequence": 18
      },
      {
        "stop_id": "001164",
        "sequence": 19
      },
      {
        "stop_id": "001152",
        "sequence": 20
      }
    ],
    "CTB_101X_O": [
      {
        "stop_id": "001152",
        "sequence": 1
      },
      {
        "stop_id": "001163",
        "sequence": 2
      },
      {
        "stop_id": "002692",
        "sequence": 3
      },
      {
        "stop_id": "001081",
        "sequence": 4
      },
      {
        "stop_id": "001059",
        "sequence": 5
      },
      {
        "stop_id": "001060",
        "sequence": 6
      },
      {
        "stop_id": "001192",
        "sequence": 7
      },
      {
        "stop_id": "002734",
        "sequence": 8
      },
      {
        "stop_id": "001063",
        "sequence": 9
      },
      {
        "stop_id": "001475",
        "sequence": 10
      },
      {
        "stop_id": "001412",
        "sequence": 11
      },
      {
        "stop_id": "003365",
        "sequence": 12
      },
      {
        "stop_id": "003366",
        "sequence": 13
      },
      {
        "stop_id": "001649",
        "sequence": 14
      },
      {
        "stop_id": "001607",
        "sequence": 15
      },
      {
        "stop_id": "001669",
        "sequence": 16
      },
      {
        "stop_id": "001656",
        "sequence": 17
      },
      {
        "stop_id": "003368",
        "sequence": 18
      },
      {
        "stop_id": "002977",
        "sequence": 19
      }
    ]
  },
  "stop_routes": {
    "002403": [
      {
        "route_number": "1",
        "company": "CTB",
        "direction": "inbound",
        "destination": "跑馬地 (上)",
        "sequence": 1,
        "route_id": "CTB_1_I"
      },
      {
        "route_number": "1",
        "company": "CTB",
        "direction": "outbound",
        "destination": "跑馬地 (上)",
        "sequence": 20,
        "route_id": "CTB_1_O"
      }
    ],
    "002402": [
      {
        "route_number": "1",
        "company": "CTB",
        "direction": "inbound",
        "destination": "跑馬地 (上)",
        "sequence": 2,
        "route_id": "CTB_1_I"
      }
    ],
    "002492": [
      {
        "route_number": "1",
        "company": "CTB",
        "direction": "inbound",
        "destination": "跑馬地 (上)",
        "sequence": 3,
        "route_id": "CTB_1_I"
      }
    ],
    "002493": [
      {
        "route_number": "1",
        "company": "CTB",
        "direction": "inbound",
        "destination": "跑馬地 (上)",
        "sequence": 4,
        "route_id": "CTB_1_I"
      }
    ],
    "002453": [
      {
        "route_number": "1",
        "company": "CTB",
        "direction": "inbound",
        "destination": "跑馬地 (上)",
        "sequence": 5,
        "route_id": "CTB_1_I"
      }
    ],
    "002552": [
      {
        "route_number": "1",
        "company": "CTB",
        "direction": "inbound",
        "destination": "跑馬地 (上)",
        "sequence": 6,
        "route_id": "CTB_1_I"
      },
      {
        "route_number": "10",
        "company": "CTB",
        "direction": "inbound",
        "destination": "北角碼頭",
        "sequence": 13,
        "route_id": "CTB_10_I"
      }
    ],
    "002553": [
      {
        "route_number": "1",
        "company": "CTB",
        "direction": "inbound",
        "destination": "跑馬地 (上)",
        "sequence": 7,
        "route_id": "CTB_1_I"
      }
    ],
    "002467": [
      {
        "route_number": "1",
        "company": "CTB",
        "direction": "inbound",
        "destination": "跑馬地 (上)",
        "sequence": 8,
        "route_id": "CTB_1_I"
      }
    ],
    "002566": [
      {
        "route_number": "1",
        "company": "CTB",
        "direction": "inbound",
        "destination": "跑馬地 (上)",
        "sequence": 9,
        "route_id": "CTB_1_I"
      },
      {
        "route_number": "101",
        "company": "CTB",
        "direction": "inbound",
        "destination": "觀塘 (裕民坊)",
        "sequence": 19,
        "route_id": "CTB_101_I"
      }
    ],
    "002537": [
      {
        "route_number": "1",
        "company": "CTB",
        "direction": "inbound",
        "destination": "跑馬地 (上)",
        "sequence": 10,
        "route_id": "CTB_1_I"
      },
      {
        "route_number": "101",
        "company": "CTB",
        "direction": "inbound",
        "destination": "觀塘 (裕民坊)",
        "sequence": 20,
        "route_id": "CTB_101_I"
      }
    ],
    "002446": [
      {
        "route_number": "1",
        "company": "CTB",
        "direction": "inbound",
        "destination": "跑馬地 (上)",
        "sequence": 11,
        "route_id": "CTB_1_I"
      },
      {
        "route_number": "101",
        "company": "CTB",
        "direction": "inbound",
        "destination": "觀塘 (裕民坊)",
        "sequence": 21,
        "route_id": "CTB_101_I"
      }
    ],
    "002449": [
      {
        "route_number": "1",
        "company": "CTB",
        "direction": "inbound",
        "destination": "跑馬地 (上)",
        "sequence": 12,
        "route_id": "CTB_1_I"
      }
    ],
    "001140": [
      {
        "route_number": "1",
        "company": "CTB",
        "direction": "inbound",
        "destination": "跑馬地 (上)",
        "sequence": 13,
        "route_id": "CTB_1_I"
      },
      {
        "route_number": "10",
        "company": "CTB",
        "direction": "inbound",
        "destination": "北角碼頭",
        "sequence": 21,
        "route_id": "CTB_10_I"
      },
      {
        "route_number": "101",
        "company": "CTB",
        "direction": "inbound",
        "destination": "觀塘 (裕民坊)",
        "sequence": 22,
        "route_id": "CTB_101_I"
      }
    ],
    "001142": [
      {
        "route_number": "1",
        "company": "CTB",
        "direction": "inbound",
        "destination": "跑馬地 (上)",
        "sequence": 14,
        "route_id": "CTB_1_I"
      },
      {
        "route_number": "10",
        "company": "CTB",
        "direction": "inbound",
        "destination": "北角碼頭",
        "sequence": 22,
        "route_id": "CTB_10_I"
      },
      {
        "route_number": "101",
        "company": "CTB",
        "direction": "inbound",
        "destination": "觀塘 (裕民坊)",
        "sequence": 23,
        "route_id": "CTB_101_I"
      }
    ],
    "001054": [
      {
        "route_number": "1",
        "company": "CTB",
        "direction": "inbound",
        "destination": "跑馬地 (上)",
        "sequence": 15,
        "route_id": "CTB_1_I"
      },
      {
        "route_number": "10",
        "company": "CTB",
        "direction": "inbound",
        "destination": "北角碼頭",
        "sequence": 23,
        "route_id": "CTB_10_I"
      },
      {
        "route_number": "101",
        "company": "CTB",
        "direction": "inbound",
        "destination": "觀塘 (裕民坊)",
        "sequence": 24,
        "route_id": "CTB_101_I"
      }
    ],
    "001056": [
      {
        "route_number": "1",
        "company": "CTB",
        "direction": "inbound",
        "destination": "跑馬地 (上)",
        "sequence": 16,
        "route_id": "CTB_1_I"
      }
    ],
    "001175": [
      {
        "route_number": "1",
        "company": "CTB",
        "direction": "inbound",
        "destination": "跑馬地 (上)",
        "sequence": 17,
        "route_id": "CTB_1_I"
      }
    ],
    "001027": [
      {
        "route_number": "1",
        "company": "CTB",
        "direction": "inbound",
        "destination": "跑馬地 (上)",
        "sequence": 18,
        "route_id": "CTB_1_I"
      },
      {
        "route_number": "1",
        "company": "CTB",
        "direction": "outbound",
        "destination": "跑馬地 (上)",
        "sequence": 1,
        "route_id": "CTB_1_O"
      }
    ],
    "001044": [
      {
        "route_number": "1",
        "company": "CTB",
        "direction": "outbound",
        "destination": "跑馬地 (上)",
        "sequence": 2,
        "route_id": "CTB_1_O"
      },
      {
        "route_number": "101",
        "company": "CTB",
        "direction": "outbound",
        "destination": "觀塘 (裕民坊)",
        "sequence": 11,
        "route_id": "CTB_101_O"
      }
    ],
    "001173": [
      {
        "route_number": "1",
        "company": "CTB",
        "direction": "outbound",
        "destination": "跑馬地 (上)",
        "sequence": 3,
        "route_id": "CTB_1_O"
      },
      {
        "route_number": "10",
        "company": "CTB",
        "direction": "outbound",
        "destination": "北角碼頭",
        "sequence": 15,
        "route_id": "CTB_10_O"
      }
    ],
    "001049": [
      {
        "route_number": "1",
        "company": "CTB",
        "direction": "outbound",
        "destination": "跑馬地 (上)",
        "sequence": 4,
        "route_id": "CTB_1_O"
      },
      {
        "route_number": "10",
        "company": "CTB",
        "direction": "outbound",
        "destination": "北角碼頭",
        "sequence": 16,
        "route_id": "CTB_10_O"
      }
    ],
    "001050": [
      {
        "route_number": "1",
        "company": "CTB",
        "direction": "outbound",
        "destination": "跑馬地 (上)",
        "sequence": 5,
        "route_id": "CTB_1_O"
      },
      {
        "route_number": "10",
        "company": "CTB",
        "direction": "outbound",
        "destination": "北角碼頭",
        "sequence": 17,
        "route_id": "CTB_10_O"
      }
    ],
    "001052": [
      {
        "route_number": "1",
        "company": "CTB",
        "direction": "outbound",
        "destination": "跑馬地 (上)",
        "sequence": 6,
        "route_id": "CTB_1_O"
      },
      {
        "route_number": "10",
        "company": "CTB",
        "direction": "outbound",
        "destination": "北角碼頭",
        "sequence": 18,
        "route_id": "CTB_10_O"
      }
    ],
    "001025": [
      {
        "route_number": "1",
        "company": "CTB",
        "direction": "outbound",
        "destination": "跑馬地 (上)",
        "sequence": 7,
        "route_id": "CTB_1_O"
      },
      {
        "route_number": "10",
        "company": "CTB",
        "direction": "outbound",
        "destination": "北角碼頭",
        "sequence": 19,
        "route_id": "CTB_10_O"
      }
    ],
    "003845": [
      {
        "route_number": "1",
        "company": "CTB",
        "direction": "outbound",
        "destination": "跑馬地 (上)",
        "sequence": 8,
        "route_id": "CTB_1_O"
      }
    ],
    "002427": [
      {
        "route_number": "1",
        "company": "CTB",
        "direction": "outbound",
        "destination": "跑馬地 (上)",
        "sequence": 9,
        "route_id": "CTB_1_O"
      },
      {
        "route_number": "101",
        "company": "CTB",
        "direction": "outbound",
        "destination": "觀塘 (裕民坊)",
        "sequence": 14,
        "route_id": "CTB_101_O"
      }
    ],
    "002431": [
      {
        "route_number": "1",
        "company": "CTB",
        "direction": "outbound",
        "destination": "跑馬地 (上)",
        "sequence": 10,
        "route_id": "CTB_1_O"
      },
      {
        "route_number": "101",
        "company": "CTB",
        "direction": "outbound",
        "destination": "觀塘 (裕民坊)",
        "sequence": 15,
        "route_id": "CTB_101_O"
      }
    ],
    "002412": [
      {
        "route_number": "1",
        "company": "CTB",
        "direction": "outbound",
        "destination": "跑馬地 (上)",
        "sequence": 11,
        "route_id": "CTB_1_O"
      }
    ],
    "002539": [
      {
        "route_number": "1",
        "company": "CTB",
        "direction": "outbound",
        "destination": "跑馬地 (上)",
        "sequence": 12,
        "route_id": "CTB_1_O"
      },
      {
        "route_number": "101",
        "company": "CTB",
        "direction": "outbound",
        "destination": "觀塘 (裕民坊)",
        "sequence": 17,
        "route_id": "CTB_101_O"
      }
    ],
    "002540": [
      {
        "route_number": "1",
        "company": "CTB",
        "direction": "outbound",
        "destination": "跑馬地 (上)",
        "sequence": 13,
        "route_id": "CTB_1_O"
      }
    ],
    "002548": [
      {
        "route_number": "1",
        "company": "CTB",
        "direction": "outbound",
        "destination": "跑馬地 (上)",
        "sequence": 14,
        "route_id": "CTB_1_O"
      },
      {
        "route_number": "10",
        "company": "CTB",
        "direction": "inbound",
        "destination": "北角碼頭",
        "sequence": 11,
        "route_id": "CTB_10_I"
      }
    ],
    "002549": [
      {
        "route_number": "1",
        "company": "CTB",
        "direction": "outbound",
        "destination": "跑馬地 (上)",
        "sequence": 15,
        "route_id": "CTB_1_O"
      }
    ],
    "002550": [
      {
        "route_number": "1",
        "company": "CTB",
        "direction": "outbound",
        "destination": "跑馬地 (上)",
        "sequence": 16,
        "route_id": "CTB_1_O"
      },
      {
        "route_number": "10",
        "company": "CTB",
        "direction": "inbound",
        "destination": "北角碼頭",
        "sequence": 12,
        "route_id": "CTB_10_I"
      }
    ],
    "002490": [
      {
        "route_number": "1",
        "company": "CTB",
        "direction": "outbound",
        "destination": "跑馬地 (上)",
        "sequence": 17,
        "route_id": "CTB_1_O"
      }
    ],
    "002491": [
      {
        "route_number": "1",
        "company": "CTB",
        "direction": "outbound",
        "destination": "跑馬地 (上)",
        "sequence": 18,
        "route_id": "CTB_1_O"
      }
    ],
    "002560": [
      {
        "route_number": "1",
        "company": "CTB",
        "direction": "outbound",
        "destination": "跑馬地 (上)",
        "sequence": 19,
        "route_id": "CTB_1_O"
      }
    ],
    "001249": [
      {
        "route_number": "10",
        "company": "CTB",
        "direction": "inbound",
        "destination": "北角碼頭",
        "sequence": 1,
        "route_id": "CTB_10_I"
      },
      {
        "route_number": "10",
        "company": "CTB",
        "direction": "outbound",
        "destination": "北角碼頭",
        "sequence": 37,
        "route_id": "CTB_10_O"
      }
    ],
    "001279": [
      {
        "route_number": "10",
        "company": "CTB",
        "direction": "inbound",
        "destination": "北角碼頭",
        "sequence": 2,
        "route_id": "CTB_10_I"
      }
    ],
    "001280": [
      {
        "route_number": "10",
        "company": "CTB",
        "direction": "inbound",
        "destination": "北角碼頭",
        "sequence": 3,
        "route_id": "CTB_10_I"
      }
    ],
    "001364": [
      {
        "route_number": "10",
        "company": "CTB",
        "direction": "inbound",
        "destination": "北角碼頭",
        "sequence": 4,
        "route_id": "CTB_10_I"
      }
    ],
    "001283": [
      {
        "route_number": "10",
        "company": "CTB",
        "direction": "inbound",
        "destination": "北角碼頭",
        "sequence": 5,
        "route_id": "CTB_10_I"
      }
    ],
    "001286": [
      {
        "route_number": "10",
        "company": "CTB",
        "direction": "inbound",
        "destination": "北角碼頭",
        "sequence": 6,
        "route_id": "CTB_10_I"
      }
    ],
    "001214": [
      {
        "route_number": "10",
        "company": "CTB",
        "direction": "inbound",
        "destination": "北角碼頭",
        "sequence": 7,
        "route_id": "CTB_10_I"
      }
    ],
    "001215": [
      {
        "route_number": "10",
        "company": "CTB",
        "direction": "inbound",
        "destination": "北角碼頭",
        "sequence": 8,
        "route_id": "CTB_10_I"
      }
    ],
    "002457": [
      {
        "route_number": "10",
        "company": "CTB",
        "direction": "inbound",
        "destination": "北角碼頭",
        "sequence": 9,
        "route_id": "CTB_10_I"
      }
    ],
    "002547": [
      {
        "route_number": "10",
        "company": "CTB",
        "direction": "inbound",
        "destination": "北角碼頭",
        "sequence": 10,
        "route_id": "CTB_10_I"
      }
    ],
    "002458": [
      {
        "route_number": "10",
        "company": "CTB",
        "direction": "inbound",
        "destination": "北角碼頭",
        "sequence": 14,
        "route_id": "CTB_10_I"
      }
    ],
    "002558": [
      {
        "route_number": "10",
        "company": "CTB",
        "direction": "inbound",
        "destination": "北角碼頭",
        "sequence": 15,
        "route_id": "CTB_10_I"
      }
    ],
    "002486": [
      {
        "route_number": "10",
        "company": "CTB",
        "direction": "inbound",
        "destination": "北角碼頭",
        "sequence": 16,
        "route_id": "CTB_10_I"
      }
    ],
    "002487": [
      {
        "route_number": "10",
        "company": "CTB",
        "direction": "inbound",
        "destination": "北角碼頭",
        "sequence": 17,
        "route_id": "CTB_10_I"
      }
    ],
    "002569": [
      {
        "route_number": "10",
        "company": "CTB",
        "direction": "inbound",
        "destination": "北角碼頭",
        "sequence": 18,
        "route_id": "CTB_10_I"
      }
    ],
    "002488": [
      {
        "route_number": "10",
        "company": "CTB",
        "direction": "inbound",
        "destination": "北角碼頭",
        "sequence": 19,
        "route_id": "CTB_10_I"
      }
    ],
    "002489": [
      {
        "route_number": "10",
        "company": "CTB",
        "direction": "inbound",
        "destination": "北角碼頭",
        "sequence": 20,
        "route_id": "CTB_10_I"
      }
    ],
    "001121": [
      {
        "route_number": "10",
        "company": "CTB",
        "direction": "inbound",
        "destination": "北角碼頭",
        "sequence": 24,
        "route_id": "CTB_10_I"
      },
      {
        "route_number": "101",
        "company": "CTB",
        "direction": "inbound",
        "destination": "觀塘 (裕民坊)",
        "sequence": 25,
        "route_id": "CTB_101_I"
      }
    ],
    "001125": [
      {
        "route_number": "10",
        "company": "CTB",
        "direction": "inbound",
        "destination": "北角碼頭",
        "sequence": 25,
        "route_id": "CTB_10_I"
      },
      {
        "route_number": "101",
        "company": "CTB",
        "direction": "inbound",
        "destination": "觀塘 (裕民坊)",
        "sequence": 26,
        "route_id": "CTB_101_I"
      }
    ],
    "001126": [
      {
        "route_number": "10",
        "company": "CTB",
        "direction": "inbound",
        "destination": "北角碼頭",
        "sequence": 26,
        "route_id": "CTB_10_I"
      },
      {
        "route_number": "101",
        "company": "CTB",
        "direction": "inbound",
        "destination": "觀塘 (裕民坊)",
        "sequence": 27,
        "route_id": "CTB_101_I"
      }
    ],
    "001127": [
      {
        "route_number": "10",
        "company": "CTB",
        "direction": "inbound",
        "destination": "北角碼頭",
        "sequence": 27,
        "route_id": "CTB_10_I"
      },
      {
        "route_number": "101",
        "company": "CTB",
        "direction": "inbound",
        "destination": "觀塘 (裕民坊)",
        "sequence": 28,
        "route_id": "CTB_101_I"
      }
    ],
    "001134": [
      {
        "route_number": "10",
        "company": "CTB",
        "direction": "inbound",
        "destination": "北角碼頭",
        "sequence": 28,
        "route_id": "CTB_10_I"
      },
      {
        "route_number": "101",
        "company": "CTB",
        "direction": "inbound",
        "destination": "觀塘 (裕民坊)",
        "sequence": 29,
        "route_id": "CTB_101_I"
      }
    ],
    "001135": [
      {
        "route_number": "10",
        "company": "CTB",
        "direction": "inbound",
        "destination": "北角碼頭",
        "sequence": 29,
        "route_id": "CTB_10_I"
      }
    ],
    "001129": [
      {
        "route_number": "10",
        "company": "CTB",
        "direction": "inbound",
        "destination": "北角碼頭",
        "sequence": 30,
        "route_id": "CTB_10_I"
      }
    ],
    "001130": [
      {
        "route_number": "10",
        "company": "CTB",
        "direction": "inbound",
        "destination": "北角碼頭",
        "sequence": 31,
        "route_id": "CTB_10_I"
      },
      {
        "route_number": "101",
        "company": "CTB",
        "direction": "inbound",
        "destination": "觀塘 (裕民坊)",
        "sequence": 30,
        "route_id": "CTB_101_I"
      }
    ],
    "001131": [
      {
        "route_number": "10",
        "company": "CTB",
        "direction": "inbound",
        "destination": "北角碼頭",
        "sequence": 32,
        "route_id": "CTB_10_I"
      }
    ],
    "001132": [
      {
        "route_number": "10",
        "company": "CTB",
        "direction": "inbound",
        "destination": "北角碼頭",
        "sequence": 33,
        "route_id": "CTB_10_I"
      },
      {
        "route_number": "101",
        "company": "CTB",
        "direction": "inbound",
        "destination": "觀塘 (裕民坊)",
        "sequence": 31,
        "route_id": "CTB_101_I"
      },
      {
        "route_number": "101X",
        "company": "CTB",
        "direction": "inbound",
        "destination": "觀塘 (裕民坊)",
        "sequence": 14,
        "route_id": "CTB_101X_I"
      }
    ],
    "001133": [
      {
        "route_number": "10",
        "company": "CTB",
        "direction": "inbound",
        "destination": "北角碼頭",
        "sequence": 34,
        "route_id": "CTB_10_I"
      },
      {
        "route_number": "101",
        "company": "CTB",
        "direction": "inbound",
        "destination": "觀塘 (裕民坊)",
        "sequence": 32,
        "route_id": "CTB_101_I"
      },
      {
        "route_number": "101X",
        "company": "CTB",
        "direction": "inbound",
        "destination": "觀塘 (裕民坊)",
        "sequence": 15,
        "route_id": "CTB_101X_I"
      }
    ],
    "001128": [
      {
        "route_number": "10",
        "company": "CTB",
        "direction": "inbound",
        "destination": "北角碼頭",
        "sequence": 35,
        "route_id": "CTB_10_I"
      },
      {
        "route_number": "101",
        "company": "CTB",
        "direction": "inbound",
        "destination": "觀塘 (裕民坊)",
        "sequence": 33,
        "route_id": "CTB_101_I"
      },
      {
        "route_number": "101X",
        "company": "CTB",
        "direction": "inbound",
        "destination": "觀塘 (裕民坊)",
        "sequence": 16,
        "route_id": "CTB_101X_I"
      }
    ],
    "001002": [
      {
        "route_number": "10",
        "company": "CTB",
        "direction": "inbound",
        "destination": "北角碼頭",
        "sequence": 36,
        "route_id": "CTB_10_I"
      }
    ],
    "001003": [
      {
        "route_number": "10",
        "company": "CTB",
        "direction": "inbound",
        "destination": "北角碼頭",
        "sequence": 37,
        "route_id": "CTB_10_I"
      },
      {
        "route_number": "101",
        "company": "CTB",
        "direction": "inbound",
        "destination": "觀塘 (裕民坊)",
        "sequence": 34,
        "route_id": "CTB_101_I"
      },
      {
        "route_number": "101X",
        "company": "CTB",
        "direction": "inbound",
        "destination": "觀塘 (裕民坊)",
        "sequence": 17,
        "route_id": "CTB_101X_I"
      }
    ],
    "001005": [
      {
        "route_number": "10",
        "company": "CTB",
        "direction": "inbound",
        "destination": "北角碼頭",
        "sequence": 38,
        "route_id": "CTB_10_I"
      },
      {
        "route_number": "101",
        "company": "CTB",
        "direction": "inbound",
        "destination": "觀塘 (裕民坊)",
        "sequence": 35,
        "route_id": "CTB_101_I"
      },
      {
        "route_number": "101X",
        "company": "CTB",
        "direction": "inbound",
        "destination": "觀塘 (裕民坊)",
        "sequence": 18,
        "route_id": "CTB_101X_I"
      }
    ],
    "001164": [
      {
        "route_number": "10",
        "company": "CTB",
        "direction": "inbound",
        "destination": "北角碼頭",
        "sequence": 39,
        "route_id": "CTB_10_I"
      },
      {
        "route_number": "101",
        "company": "CTB",
        "direction": "inbound",
        "destination": "觀塘 (裕民坊)",
        "sequence": 36,
        "route_id": "CTB_101_I"
      },
      {
        "route_number": "101X",
        "company": "CTB",
        "direction": "inbound",
        "destination": "觀塘 (裕民坊)",
        "sequence": 19,
        "route_id": "CTB_101X_I"
      }
    ],
    "001152": [
      {
        "route_number": "10",
        "company": "CTB",
        "direction": "inbound",
        "destination": "北角碼頭",
        "sequence": 40,
        "route_id": "CTB_10_I"
      },
      {
        "route_number": "10",
        "company": "CTB",
        "direction": "outbound",
        "destination": "北角碼頭",
        "sequence": 1,
        "route_id": "CTB_10_O"
      },
      {
        "route_number": "101",
        "company": "CTB",
        "direction": "inbound",
        "destination": "觀塘 (裕民坊)",
        "sequence": 37,
        "route_id": "CTB_101_I"
      },
      {
        "route_number": "101",
        "company": "CTB",
        "direction": "outbound",
        "destination": "觀塘 (裕民坊)",
        "sequence": 1,
        "route_id": "CTB_101_O"
      },
      {
        "route_number": "101X",
        "company": "CTB",
        "direction": "inbound",
        "destination": "觀塘 (裕民坊)",
        "sequence": 20,
        "route_id": "CTB_101X_I"
      },
      {
        "route_number": "101X",
        "company": "CTB",
        "direction": "outbound",
        "destination": "觀塘 (裕民坊)",
        "sequence": 1,
        "route_id": "CTB_101X_O"
      }
    ],
    "001163": [
      {
        "route_number": "10",
        "company": "CTB",
        "direction": "outbound",
        "destination": "北角碼頭",
        "sequence": 2,
        "route_id": "CTB_10_O"
      },
      {
        "route_number": "101",
        "company": "CTB",
        "direction": "outbound",
        "destination": "觀塘 (裕民坊)",
        "sequence": 2,
        "route_id": "CTB_101_O"
      },
      {
        "route_number": "101X",
        "company": "CTB",
        "direction": "outbound",
        "destination": "觀塘 (裕民坊)",
        "sequence": 2,
        "route_id": "CTB_101X_O"
      }
    ],
    "001022": [
      {
        "route_number": "10",
        "company": "CTB",
        "direction": "outbound",
        "destination": "北角碼頭",
        "sequence": 3,
        "route_id": "CTB_10_O"
      }
    ],
    "001080": [
      {
        "route_number": "10",
        "company": "CTB",
        "direction": "outbound",
        "destination": "北角碼頭",
        "sequence": 4,
        "route_id": "CTB_10_O"
      }
    ],
    "001081": [
      {
        "route_number": "10",
        "company": "CTB",
        "direction": "outbound",
        "destination": "北角碼頭",
        "sequence": 5,
        "route_id": "CTB_10_O"
      },
      {
        "route_number": "101",
        "company": "CTB",
        "direction": "outbound",
        "destination": "觀塘 (裕民坊)",
        "sequence": 4,
        "route_id": "CTB_101_O"
      },
      {
        "route_number": "101X",
        "company": "CTB",
        "direction": "outbound",
        "destination": "觀塘 (裕民坊)",
        "sequence": 4,
        "route_id": "CTB_101X_O"
      }
    ],
    "001079": [
      {
        "route_number": "10",
        "company": "CTB",
        "direction": "outbound",
        "destination": "北角碼頭",
        "sequence": 6,
        "route_id": "CTB_10_O"
      }
    ],
    "001059": [
      {
        "route_number": "10",
        "company": "CTB",
        "direction": "outbound",
        "destination": "北角碼頭",
        "sequence": 7,
        "route_id": "CTB_10_O"
      },
      {
        "route_number": "101",
        "company": "CTB",
        "direction": "outbound",
        "destination": "觀塘 (裕民坊)",
        "sequence": 5,
        "route_id": "CTB_101_O"
      },
      {
        "route_number": "101X",
        "company": "CTB",
        "direction": "outbound",
        "destination": "觀塘 (裕民坊)",
        "sequence": 5,
        "route_id": "CTB_101X_O"
      }
    ],
    "001060": [
      {
        "route_number": "10",
        "company": "CTB",
        "direction": "outbound",
        "destination": "北角碼頭",
        "sequence": 8,
        "route_id": "CTB_10_O"
      },
      {
        "route_number": "101",
        "company": "CTB",
        "direction": "outbound",
        "destination": "觀塘 (裕民坊)",
        "sequence": 6,
        "route_id": "CTB_101_O"
      },
      {
        "route_number": "101X",
        "company": "CTB",
        "direction": "outbound",
        "destination": "觀塘 (裕民坊)",
        "sequence": 6,
        "route_id": "CTB_101X_O"
      }
    ],
    "001061": [
      {
        "route_number": "10",
        "company": "CTB",
        "direction": "outbound",
        "destination": "北角碼頭",
        "sequence": 9,
        "route_id": "CTB_10_O"
      }
    ],
    "001062": [
      {
        "route_number": "10",
        "company": "CTB",
        "direction": "outbound",
        "destination": "北角碼頭",
        "sequence": 10,
        "route_id": "CTB_10_O"
      }
    ],
    "001063": [
      {
        "route_number": "10",
        "company": "CTB",
        "direction": "outbound",
        "destination": "北角碼頭",
        "sequence": 11,
        "route_id": "CTB_10_O"
      },
      {
        "route_number": "101X",
        "company": "CTB",
        "direction": "outbound",
        "destination": "觀塘 (裕民坊)",
        "sequence": 9,
        "route_id": "CTB_101X_O"
      }
    ],
    "001064": [
      {
        "route_number": "10",
        "company": "CTB",
        "direction": "outbound",
        "destination": "北角碼頭",
        "sequence": 12,
        "route_id": "CTB_10_O"
      },
      {
        "route_number": "101",
        "company": "CTB",
        "direction": "outbound",
        "destination": "觀塘 (裕民坊)",
        "sequence": 9,
        "route_id": "CTB_101_O"
      }
    ],
    "001065": [
      {
        "route_number": "10",
        "company": "CTB",
        "direction": "outbound",
        "destination": "北角碼頭",
        "sequence": 13,
        "route_id": "CTB_10_O"
      },
      {
        "route_number": "101",
        "company": "CTB",
        "direction": "outbound",
        "destination": "觀塘 (裕民坊)",
        "sequence": 10,
        "route_id": "CTB_101_O"
      }
    ],
    "001187": [
      {
        "route_number": "10",
        "company": "CTB",
        "direction": "outbound",
        "destination": "北角碼頭",
        "sequence": 14,
        "route_id": "CTB_10_O"
      }
    ],
    "001136": [
      {
        "route_number": "10",
        "company": "CTB",
        "direction": "outbound",
        "destination": "北角碼頭",
        "sequence": 20,
        "route_id": "CTB_10_O"
      }
    ],
    "002479": [
      {
        "route_number": "10",
        "company": "CTB",
        "direction": "outbound",
        "destination": "北角碼頭",
        "sequence": 21,
        "route_id": "CTB_10_O"
      }
    ],
    "002480": [
      {
        "route_number": "10",
        "company": "CTB",
        "direction": "outbound",
        "destination": "北角碼頭",
        "sequence": 22,
        "route_id": "CTB_10_O"
      }
    ],
    "002481": [
      {
        "route_number": "10",
        "company": "CTB",
        "direction": "outbound",
        "destination": "北角碼頭",
        "sequence": 23,
        "route_id": "CTB_10_O"
      }
    ],
    "002482": [
      {
        "route_number": "10",
        "company": "CTB",
        "direction": "outbound",
        "destination": "北角碼頭",
        "sequence": 24,
        "route_id": "CTB_10_O"
      }
    ],
    "002484": [
      {
        "route_number": "10",
        "company": "CTB",
        "direction": "outbound",
        "destination": "北角碼頭",
        "sequence": 25,
        "route_id": "CTB_10_O"
      }
    ],
    "002485": [
      {
        "route_number": "10",
        "company": "CTB",
        "direction": "outbound",
        "destination": "北角碼頭",
        "sequence": 26,
        "route_id": "CTB_10_O"
      }
    ],
    "002469": [
      {
        "route_number": "10",
        "company": "CTB",
        "direction": "outbound",
        "destination": "北角碼頭",
        "sequence": 27,
        "route_id": "CTB_10_O"
      }
    ],
    "002455": [
      {
        "route_number": "10",
        "company": "CTB",
        "direction": "outbound",
        "destination": "北角碼頭",
        "sequence": 28,
        "route_id": "CTB_10_O"
      }
    ],
    "002456": [
      {
        "route_number": "10",
        "company": "CTB",
        "direction": "outbound",
        "destination": "北角碼頭",
        "sequence": 29,
        "route_id": "CTB_10_O"
      }
    ],
    "002474": [
      {
        "route_number": "10",
        "company": "CTB",
        "direction": "outbound",
        "destination": "北角碼頭",
        "sequence": 30,
        "route_id": "CTB_10_O"
      }
    ],
    "001213": [
      {
        "route_number": "10",
        "company": "CTB",
        "direction": "outbound",
        "destination": "北角碼頭",
        "sequence": 31,
        "route_id": "CTB_10_O"
      }
    ],
    "001259": [
      {
        "route_number": "10",
        "company": "CTB",
        "direction": "outbound",
        "destination": "北角碼頭",
        "sequence": 32,
        "route_id": "CTB_10_O"
      }
    ],
    "001260": [
      {
        "route_number": "10",
        "company": "CTB",
        "direction": "outbound",
        "destination": "北角碼頭",
        "sequence": 33,
        "route_id": "CTB_10_O"
      }
    ],
    "001261": [
      {
        "route_number": "10",
        "company": "CTB",
        "direction": "outbound",
        "destination": "北角碼頭",
        "sequence": 34,
        "route_id": "CTB_10_O"
      }
    ],
    "001262": [
      {
        "route_number": "10",
        "company": "CTB",
        "direction": "outbound",
        "destination": "北角碼頭",
        "sequence": 35,
        "route_id": "CTB_10_O"
      }
    ],
    "001310": [
      {
        "route_number": "10",
        "company": "CTB",
        "direction": "outbound",
        "destination": "北角碼頭",
        "sequence": 36,
        "route_id": "CTB_10_O"
      }
    ],
    "002977": [
      {
        "route_number": "101",
        "company": "CTB",
        "direction": "inbound",
        "destination": "觀塘 (裕民坊)",
        "sequence": 1,
        "route_id": "CTB_101_I"
      },
      {
        "route_number": "101",
        "company": "CTB",
        "direction": "outbound",
        "destination": "觀塘 (裕民坊)",
        "sequence": 35,
        "route_id": "CTB_101_O"
      },
      {
        "route_number": "101R",
        "company": "CTB",
        "direction": "outbound",
        "destination": "觀塘 (裕民坊)",
        "sequence": 21,
        "route_id": "CTB_101R_O"
      },
      {
        "route_number": "101X",
        "company": "CTB",
        "direction": "inbound",
        "destination": "觀塘 (裕民坊)",
        "sequence": 1,
        "route_id": "CTB_101X_I"
      },
      {
        "route_number": "101X",
        "company": "CTB",
        "direction": "outbound",
        "destination": "觀塘 (裕民坊)",
        "sequence": 19,
        "route_id": "CTB_101X_O"
      }
    ],
    "001648": [
      {
        "route_number": "101",
        "company": "CTB",
        "direction": "inbound",
        "destination": "觀塘 (裕民坊)",
        "sequence": 2,
        "route_id": "CTB_101_I"
      },
      {
        "route_number": "101X",
        "company": "CTB",
        "direction": "inbound",
        "destination": "觀塘 (裕民坊)",
        "sequence": 2,
        "route_id": "CTB_101X_I"
      }
    ],
    "001650": [
      {
        "route_number": "101",
        "company": "CTB",
        "direction": "inbound",
        "destination": "觀塘 (裕民坊)",
        "sequence": 3,
        "route_id": "CTB_101_I"
      },
      {
        "route_number": "101X",
        "company": "CTB",
        "direction": "inbound",
        "destination": "觀塘 (裕民坊)",
        "sequence": 3,
        "route_id": "CTB_101X_I"
      }
    ],
    "002978": [
      {
        "route_number": "101",
        "company": "CTB",
        "direction": "inbound",
        "destination": "觀塘 (裕民坊)",
        "sequence": 4,
        "route_id": "CTB_101_I"
      },
      {
        "route_number": "101X",
        "company": "CTB",
        "direction": "inbound",
        "destination": "觀塘 (裕民坊)",
        "sequence": 4,
        "route_id": "CTB_101X_I"
      }
    ],
    "002979": [
      {
        "route_number": "101",
        "company": "CTB",
        "direction": "inbound",
        "destination": "觀塘 (裕民坊)",
        "sequence": 5,
        "route_id": "CTB_101_I"
      },
      {
        "route_number": "101X",
        "company": "CTB",
        "direction": "inbound",
        "destination": "觀塘 (裕民坊)",
        "sequence": 5,
        "route_id": "CTB_101X_I"
      }
    ],
    "002889": [
      {
        "route_number": "101",
        "company": "CTB",
        "direction": "inbound",
        "destination": "觀塘 (裕民坊)",
        "sequence": 6,
        "route_id": "CTB_101_I"
      }
    ],
    "001502": [
      {
        "route_number": "101",
        "company": "CTB",
        "direction": "inbound",
        "destination": "觀塘 (裕民坊)",
        "sequence": 7,
        "route_id": "CTB_101_I"
      }
    ],
    "001575": [
      {
        "route_number": "101",
        "company": "CTB",
        "direction": "inbound",
        "destination": "觀塘 (裕民坊)",
        "sequence": 8,
        "route_id": "CTB_101_I"
      }
    ],
    "001576": [
      {
        "route_number": "101",
        "company": "CTB",
        "direction": "inbound",
        "destination": "觀塘 (裕民坊)",
        "sequence": 9,
        "route_id": "CTB_101_I"
      }
    ],
    "001577": [
      {
        "route_number": "101",
        "company": "CTB",
        "direction": "inbound",
        "destination": "觀塘 (裕民坊)",
        "sequence": 10,
        "route_id": "CTB_101_I"
      }
    ],
    "001530": [
      {
        "route_number": "101",
        "company": "CTB",
        "direction": "inbound",
        "destination": "觀塘 (裕民坊)",
        "sequence": 11,
        "route_id": "CTB_101_I"
      }
    ],
    "001538": [
      {
        "route_number": "101",
        "company": "CTB",
        "direction": "inbound",
        "destination": "觀塘 (裕民坊)",
        "sequence": 12,
        "route_id": "CTB_101_I"
      }
    ],
    "001643": [
      {
        "route_number": "101",
        "company": "CTB",
        "direction": "inbound",
        "destination": "觀塘 (裕民坊)",
        "sequence": 13,
        "route_id": "CTB_101_I"
      }
    ],
    "001644": [
      {
        "route_number": "101",
        "company": "CTB",
        "direction": "inbound",
        "destination": "觀塘 (裕民坊)",
        "sequence": 14,
        "route_id": "CTB_101_I"
      }
    ],
    "001415": [
      {
        "route_number": "101",
        "company": "CTB",
        "direction": "inbound",
        "destination": "觀塘 (裕民坊)",
        "sequence": 15,
        "route_id": "CTB_101_I"
      }
    ],
    "001476": [
      {
        "route_number": "101",
        "company": "CTB",
        "direction": "inbound",
        "destination": "觀塘 (裕民坊)",
        "sequence": 16,
        "route_id": "CTB_101_I"
      }
    ],
    "002441": [
      {
        "route_number": "101",
        "company": "CTB",
        "direction": "inbound",
        "destination": "觀塘 (裕民坊)",
        "sequence": 17,
        "route_id": "CTB_101_I"
      }
    ],
    "002444": [
      {
        "route_number": "101",
        "company": "CTB",
        "direction": "inbound",
        "destination": "觀塘 (裕民坊)",
        "sequence": 18,
        "route_id": "CTB_101_I"
      }
    ],
    "002692": [
      {
        "route_number": "101",
        "company": "CTB",
        "direction": "outbound",
        "destination": "觀塘 (裕民坊)",
        "sequence": 3,
        "route_id": "CTB_101_O"
      },
      {
        "route_number": "101X",
        "company": "CTB",
        "direction": "outbound",
        "destination": "觀塘 (裕民坊)",
        "sequence": 3,
        "route_id": "CTB_101X_O"
      }
    ],
    "001192": [
      {
        "route_number": "101",
        "company": "CTB",
        "direction": "outbound",
        "destination": "觀塘 (裕民坊)",
        "sequence": 7,
        "route_id": "CTB_101_O"
      },
      {
        "route_number": "101X",
        "company": "CTB",
        "direction": "outbound",
        "destination": "觀塘 (裕民坊)",
        "sequence": 7,
        "route_id": "CTB_101X_O"
      }
    ],
    "002734": [
      {
        "route_number": "101",
        "company": "CTB",
        "direction": "outbound",
        "destination": "觀塘 (裕民坊)",
        "sequence": 8,
        "route_id": "CTB_101_O"
      },
      {
        "route_number": "101X",
        "company": "CTB",
        "direction": "outbound",
        "destination": "觀塘 (裕民坊)",
        "sequence": 8,
        "route_id": "CTB_101X_O"
      }
    ],
    "002737": [
      {
        "route_number": "101",
        "company": "CTB",
        "direction": "outbound",
        "destination": "觀塘 (裕民坊)",
        "sequence": 12,
        "route_id": "CTB_101_O"
      }
    ],
    "001051": [
      {
        "route_number": "101",
        "company": "CTB",
        "direction": "outbound",
        "destination": "觀塘 (裕民坊)",
        "sequence": 13,
        "route_id": "CTB_101_O"
      }
    ],
    "002413": [
      {
        "route_number": "101",
        "company": "CTB",
        "direction": "outbound",
        "destination": "觀塘 (裕民坊)",
        "sequence": 16,
        "route_id": "CTB_101_O"
      }
    ],
    "002968": [
      {
        "route_number": "101",
        "company": "CTB",
        "direction": "outbound",
        "destination": "觀塘 (裕民坊)",
        "sequence": 18,
        "route_id": "CTB_101_O"
      }
    ],
    "001475": [
      {
        "route_number": "101",
        "company": "CTB",
        "direction": "outbound",
        "destination": "觀塘 (裕民坊)",
        "sequence": 19,
        "route_id": "CTB_101_O"
      },
      {
        "route_number": "101R",
        "company": "CTB",
        "direction": "outbound",
        "destination": "觀塘 (裕民坊)",
        "sequence": 2,
        "route_id": "CTB_101R_O"
      },
      {
        "route_number": "101X",
        "company": "CTB",
        "direction": "outbound",
        "destination": "觀塘 (裕民坊)",
        "sequence": 10,
        "route_id": "CTB_101X_O"
      }
    ],
    "001412": [
      {
        "route_number": "101",
        "company": "CTB",
        "direction": "outbound",
        "destination": "觀塘 (裕民坊)",
        "sequence": 20,
        "route_id": "CTB_101_O"
      },
      {
        "route_number": "101R",
        "company": "CTB",
        "direction": "outbound",
        "destination": "觀塘 (裕民坊)",
        "sequence": 3,
        "route_id": "CTB_101R_O"
      },
      {
        "route_number": "101X",
        "company": "CTB",
        "direction": "outbound",
        "destination": "觀塘 (裕民坊)",
        "sequence": 11,
        "route_id": "CTB_101X_O"
      }
    ],
    "001413": [
      {
        "route_number": "101",
        "company": "CTB",
        "direction": "outbound",
        "destination": "觀塘 (裕民坊)",
        "sequence": 21,
        "route_id": "CTB_101_O"
      },
      {
        "route_number": "101R",
        "company": "CTB",
        "direction": "outbound",
        "destination": "觀塘 (裕民坊)",
        "sequence": 4,
        "route_id": "CTB_101R_O"
      }
    ],
    "001534": [
      {
        "route_number": "101",
        "company": "CTB",
        "direction": "outbound",
        "destination": "觀塘 (裕民坊)",
        "sequence": 22,
        "route_id": "CTB_101_O"
      },
      {
        "route_number": "101R",
        "company": "CTB",
        "direction": "outbound",
        "destination": "觀塘 (裕民坊)",
        "sequence": 5,
        "route_id": "CTB_101R_O"
      }
    ],
    "001535": [
      {
        "route_number": "101",
        "company": "CTB",
        "direction": "outbound",
        "destination": "觀塘 (裕民坊)",
        "sequence": 23,
        "route_id": "CTB_101_O"
      },
      {
        "route_number": "101R",
        "company": "CTB",
        "direction": "outbound",
        "destination": "觀塘 (裕民坊)",
        "sequence": 6,
        "route_id": "CTB_101R_O"
      }
    ],
    "001772": [
      {
        "route_number": "101",
        "company": "CTB",
        "direction": "outbound",
        "destination": "觀塘 (裕民坊)",
        "sequence": 24,
        "route_id": "CTB_101_O"
      },
      {
        "route_number": "101R",
        "company": "CTB",
        "direction": "outbound",
        "destination": "觀塘 (裕民坊)",
        "sequence": 7,
        "route_id": "CTB_101R_O"
      }
    ],
    "001529": [
      {
        "route_number": "101",
        "company": "CTB",
        "direction": "outbound",
        "destination": "觀塘 (裕民坊)",
        "sequence": 25,
        "route_id": "CTB_101_O"
      },
      {
        "route_number": "101R",
        "company": "CTB",
        "direction": "outbound",
        "destination": "觀塘 (裕民坊)",
        "sequence": 8,
        "route_id": "CTB_101R_O"
      }
    ],
    "001572": [
      {
        "route_number": "101",
        "company": "CTB",
        "direction": "outbound",
        "destination": "觀塘 (裕民坊)",
        "sequence": 26,
        "route_id": "CTB_101_O"
      },
      {
        "route_number": "101R",
        "company": "CTB",
        "direction": "outbound",
        "destination": "觀塘 (裕民坊)",
        "sequence": 9,
        "route_id": "CTB_101R_O"
      }
    ],
    "002976": [
      {
        "route_number": "101",
        "company": "CTB",
        "direction": "outbound",
        "destination": "觀塘 (裕民坊)",
        "sequence": 27,
        "route_id": "CTB_101_O"
      }
    ],
    "001829": [
      {
        "route_number": "101",
        "company": "CTB",
        "direction": "outbound",
        "destination": "觀塘 (裕民坊)",
        "sequence": 28,
        "route_id": "CTB_101_O"
      }
    ],
    "001503": [
      {
        "route_number": "101",
        "company": "CTB",
        "direction": "outbound",
        "destination": "觀塘 (裕民坊)",
        "sequence": 29,
        "route_id": "CTB_101_O"
      },
      {
        "route_number": "101R",
        "company": "CTB",
        "direction": "outbound",
        "destination": "觀塘 (裕民坊)",
        "sequence": 15,
        "route_id": "CTB_101R_O"
      }
    ],
    "001504": [
      {
        "route_number": "101",
        "company": "CTB",
        "direction": "outbound",
        "destination": "觀塘 (裕民坊)",
        "sequence": 30,
        "route_id": "CTB_101_O"
      },
      {
        "route_number": "101R",
        "company": "CTB",
        "direction": "outbound",
        "destination": "觀塘 (裕民坊)",
        "sequence": 16,
        "route_id": "CTB_101R_O"
      }
    ],
    "001505": [
      {
        "route_number": "101",
        "company": "CTB",
        "direction": "outbound",
        "destination": "觀塘 (裕民坊)",
        "sequence": 31,
        "route_id": "CTB_101_O"
      },
      {
        "route_number": "101R",
        "company": "CTB",
        "direction": "outbound",
        "destination": "觀塘 (裕民坊)",
        "sequence": 17,
        "route_id": "CTB_101R_O"
      }
    ],
    "001506": [
      {
        "route_number": "101",
        "company": "CTB",
        "direction": "outbound",
        "destination": "觀塘 (裕民坊)",
        "sequence": 32,
        "route_id": "CTB_101_O"
      },
      {
        "route_number": "101R",
        "company": "CTB",
        "direction": "outbound",
        "destination": "觀塘 (裕民坊)",
        "sequence": 18,
        "route_id": "CTB_101R_O"
      }
    ],
    "001797": [
      {
        "route_number": "101",
        "company": "CTB",
        "direction": "outbound",
        "destination": "觀塘 (裕民坊)",
        "sequence": 33,
        "route_id": "CTB_101_O"
      },
      {
        "route_number": "101R",
        "company": "CTB",
        "direction": "outbound",
        "destination": "觀塘 (裕民坊)",
        "sequence": 19,
        "route_id": "CTB_101R_O"
      }
    ],
    "001508": [
      {
        "route_number": "101",
        "company": "CTB",
        "direction": "outbound",
        "destination": "觀塘 (裕民坊)",
        "sequence": 34,
        "route_id": "CTB_101_O"
      },
      {
        "route_number": "101R",
        "company": "CTB",
        "direction": "outbound",
        "destination": "觀塘 (裕民坊)",
        "sequence": 20,
        "route_id": "CTB_101R_O"
      }
    ],
    "002470": [
      {
        "route_number": "101R",
        "company": "CTB",
        "direction": "outbound",
        "destination": "觀塘 (裕民坊)",
        "sequence": 1,
        "route_id": "CTB_101R_O"
      }
    ],
    "001642": [
      {
        "route_number": "101R",
        "company": "CTB",
        "direction": "outbound",
        "destination": "觀塘 (裕民坊)",
        "sequence": 10,
        "route_id": "CTB_101R_O"
      }
    ],
    "003005": [
      {
        "route_number": "101R",
        "company": "CTB",
        "direction": "outbound",
        "destination": "觀塘 (裕民坊)",
        "sequence": 11,
        "route_id": "CTB_101R_O"
      }
    ],
    "001689": [
      {
        "route_number": "101R",
        "company": "CTB",
        "direction": "outbound",
        "destination": "觀塘 (裕民坊)",
        "sequence": 12,
        "route_id": "CTB_101R_O"
      }
    ],
    "001452": [
      {
        "route_number": "101R",
        "company": "CTB",
        "direction": "outbound",
        "destination": "觀塘 (裕民坊)",
        "sequence": 13,
        "route_id": "CTB_101R_O"
      }
    ],
    "001448": [
      {
        "route_number": "101R",
        "company": "CTB",
        "direction": "outbound",
        "destination": "觀塘 (裕民坊)",
        "sequence": 14,
        "route_id": "CTB_101R_O"
      }
    ],
    "001773": [
      {
        "route_number": "101X",
        "company": "CTB",
        "direction": "inbound",
        "destination": "觀塘 (裕民坊)",
        "sequence": 6,
        "route_id": "CTB_101X_I"
      }
    ],
    "001655": [
      {
        "route_number": "101X",
        "company": "CTB",
        "direction": "inbound",
        "destination": "觀塘 (裕民坊)",
        "sequence": 7,
        "route_id": "CTB_101X_I"
      }
    ],
    "003047": [
      {
        "route_number": "101X",
        "company": "CTB",
        "direction": "inbound",
        "destination": "觀塘 (裕民坊)",
        "sequence": 8,
        "route_id": "CTB_101X_I"
      }
    ],
    "003036": [
      {
        "route_number": "101X",
        "company": "CTB",
        "direction": "inbound",
        "destination": "觀塘 (裕民坊)",
        "sequence": 9,
        "route_id": "CTB_101X_I"
      }
    ],
    "003404": [
      {
        "route_number": "101X",
        "company": "CTB",
        "direction": "inbound",
        "destination": "觀塘 (裕民坊)",
        "sequence": 10,
        "route_id": "CTB_101X_I"
      }
    ],
    "002570": [
      {
        "route_number": "101X",
        "company": "CTB",
        "direction": "inbound",
        "destination": "觀塘 (裕民坊)",
        "sequence": 11,
        "route_id": "CTB_101X_I"
      }
    ],
    "001033": [
      {
        "route_number": "101X",
        "company": "CTB",
        "direction": "inbound",
        "destination": "觀塘 (裕民坊)",
        "sequence": 12,
        "route_id": "CTB_101X_I"
      }
    ],
    "001191": [
      {
        "route_number": "101X",
        "company": "CTB",
        "direction": "inbound",
        "destination": "觀塘 (裕民坊)",
        "sequence": 13,
        "route_id": "CTB_101X_I"
      }
    ],
    "003365": [
      {
        "route_number": "101X",
        "company": "CTB",
        "direction": "outbound",
        "destination": "觀塘 (裕民坊)",
        "sequence": 12,
        "route_id": "CTB_101X_O"
      }
    ],
    "003366": [
      {
        "route_number": "101X",
        "company": "CTB",
        "direction": "outbound",
        "destination": "觀塘 (裕民坊)",
        "sequence": 13,
        "route_id": "CTB_101X_O"
      }
    ],
    "001649": [
      {
        "route_number": "101X",
        "company": "CTB",
        "direction": "outbound",
        "destination": "觀塘 (裕民坊)",
        "sequence": 14,
        "route_id": "CTB_101X_O"
      }
    ],
    "001607": [
      {
        "route_number": "101X",
        "company": "CTB",
        "direction": "outbound",
        "destination": "觀塘 (裕民坊)",
        "sequence": 15,
        "route_id": "CTB_101X_O"
      }
    ],
    "001669": [
      {
        "route_number": "101X",
        "company": "CTB",
        "direction": "outbound",
        "destination": "觀塘 (裕民坊)",
        "sequence": 16,
        "route_id": "CTB_101X_O"
      }
    ],
    "001656": [
      {
        "route_number": "101X",
        "company": "CTB",
        "direction": "outbound",
        "destination": "觀塘 (裕民坊)",
        "sequence": 17,
        "route_id": "CTB_101X_O"
      }
    ],
    "003368": [
      {
        "route_number": "101X",
        "company": "CTB",
        "direction": "outbound",
        "destination": "觀塘 (裕民坊)",
        "sequence": 18,
        "route_id": "CTB_101X_O"
      }
    ]
  },
  "summary": {
    "total_routes": 9,
    "total_stops": 162,
    "total_stop_route_mappings": 162
  }
}